STATE,COUNTY,CITY,ZipCode
FL,HILLSBOROUGH,APOLLO BEACH,33572
FL,HILLSBOROUGH,RUSKIN,33570
FL,HILLSBOROUGH,RUSKIN,33575
FL,HILLSBOROUGH,SUN CITY,33586
FL,HILLSBOROUGH,SUN CITY CENTER,33571
FL,HILLSBOROUGH,SUN CITY CENTER,33573
FL,HILLSBOROUGH,TAMPA,33601
FL,HILLSBOROUGH,TAMPA,33602
FL,HILLSBOROUGH,TAMPA,33605
FL,HILLSBOROUGH,TAMPA,33606
FL,HILLSBOROUGH,TAMPA,33608
FL,HILLSBOROUGH,TAMPA,33609
FL,HILLSBOROUGH,TAMPA,33611
FL,HILLSBOROUGH,TAMPA,33616
FL,HILLSBOROUGH,TAMPA,33619
FL,HILLSBOROUGH,TAMPA,33621
FL,HILLSBOROUGH,TAMPA,33622
FL,HILLSBOROUGH,TAMPA,33623
FL,HILLSBOROUGH,TAMPA,33629
FL,HILLSBOROUGH,TAMPA,33631
FL,HILLSBOROUGH,TAMPA,33633
FL,HILLSBOROUGH,TAMPA,33650
FL,HILLSBOROUGH,TAMPA,33655
FL,HILLSBOROUGH,TAMPA,33660
FL,HILLSBOROUGH,TAMPA,33661
FL,HILLSBOROUGH,TAMPA,33662
FL,HILLSBOROUGH,TAMPA,33663
FL,HILLSBOROUGH,TAMPA,33664
FL,HILLSBOROUGH,TAMPA,33672
FL,HILLSBOROUGH,TAMPA,33673
FL,HILLSBOROUGH,TAMPA,33674
FL,HILLSBOROUGH,TAMPA,33675
FL,HILLSBOROUGH,TAMPA,33677
FL,HILLSBOROUGH,TAMPA,33679
FL,HILLSBOROUGH,TAMPA,33680
FL,HILLSBOROUGH,TAMPA,33681
FL,HILLSBOROUGH,TAMPA,33682
FL,HILLSBOROUGH,TAMPA,33684
FL,HILLSBOROUGH,TAMPA,33685
FL,HILLSBOROUGH,TAMPA,33686
FL,HILLSBOROUGH,TAMPA,33687
FL,HILLSBOROUGH,TAMPA,33688
FL,HILLSBOROUGH,TAMPA,33689
FL,HILLSBOROUGH,TAMPA,33694
FL,MANATEE,BRADENTON,34201
FL,MANATEE,BRADENTON,34202
FL,MANATEE,BRADENTON,34203
FL,MANATEE,BRADENTON,34204
FL,MANATEE,BRADENTON,34205
FL,MANATEE,BRADENTON,34206
FL,MANATEE,BRADENTON,34207
FL,MANATEE,BRADENTON,34208
FL,MANATEE,BRADENTON,34209
FL,MANATEE,BRADENTON,34210
FL,MANATEE,BRADENTON,34211
FL,MANATEE,BRADENTON,34212
FL,MANATEE,BRADENTON,34280
FL,MANATEE,BRADENTON,34281
FL,MANATEE,BRADENTON,34282
FL,MANATEE,BRADENTON BEACH,34217
FL,MANATEE,HOLMES BEACH,34218
FL,MANATEE,SARASOTA,34243
FL,MANATEE,SARASOTA,34260
FL,MARTIN,INDIANTOWN,34956
FL,MARTIN,JENSEN BEACH,34957
FL,MARTIN,JENSEN BEACH,34958
FL,SAINT LUCIE,FORT PIERCE,34950
FL,SAINT LUCIE,FORT PIERCE,34951
FL,SAINT LUCIE,FORT PIERCE,34954
FL,SAINT LUCIE,FORT PIERCE,34982
FL,SAINT LUCIE,PORT SAINT LUCIE,34952
FL,SAINT LUCIE,PORT SAINT LUCIE,34953
FL,SAINT LUCIE,PORT SAINT LUCIE,34983
FL,SAINT LUCIE,PORT SAINT LUCIE,34984
FL,SAINT LUCIE,PORT SAINT LUCIE,34985
FL,SAINT LUCIE,PORT SAINT LUCIE,34986
FL,SAINT LUCIE,PORT SAINT LUCIE,34987
FL,SAINT LUCIE,PORT SAINT LUCIE,34988
State,County,City,ZipCode
FL,ALACHUA,ALACHUA,32615
FL,ALACHUA,ALACHUA,32616
FL,ALACHUA,ARCHER,32618
FL,ALACHUA,EARLETON,32631
FL,ALACHUA,EVINSTON,32633
FL,ALACHUA,GAINESVILLE,32601
FL,ALACHUA,GAINESVILLE,32602
FL,ALACHUA,GAINESVILLE,32603
FL,ALACHUA,GAINESVILLE,32604
FL,ALACHUA,GAINESVILLE,32605
FL,ALACHUA,GAINESVILLE,32606
FL,ALACHUA,GAINESVILLE,32607
FL,ALACHUA,GAINESVILLE,32608
FL,ALACHUA,GAINESVILLE,32609
FL,ALACHUA,GAINESVILLE,32610
FL,ALACHUA,GAINESVILLE,32611
FL,ALACHUA,GAINESVILLE,32612
FL,ALACHUA,GAINESVILLE,32614
FL,ALACHUA,GAINESVILLE,32627
FL,ALACHUA,GAINESVILLE,32635
FL,ALACHUA,GAINESVILLE,32641
FL,ALACHUA,GAINESVILLE,32653
FL,ALACHUA,HAWTHORNE,32640
FL,ALACHUA,HIGH SPRINGS,32643
FL,ALACHUA,HIGH SPRINGS,32655
FL,ALACHUA,ISLAND GROVE,32654
FL,ALACHUA,LA CROSSE,32658
FL,ALACHUA,LOCHLOOSA,32662
FL,ALACHUA,MICANOPY,32667
FL,ALACHUA,NEWBERRY,32669
FL,ALACHUA,WALDO,32694
FL,BAKER,GLEN SAINT MARY,32040
FL,BAKER,MACCLENNY,32063
FL,BAKER,OLUSTEE,32072
FL,BAKER,SANDERSON,32087
FL,BAY,FOUNTAIN,32438
FL,BAY,LYNN HAVEN,32444
FL,BAY,MEXICO BEACH,32410
FL,BAY,PANAMA CITY,32401
FL,BAY,PANAMA CITY,32402
FL,BAY,PANAMA CITY,32403
FL,BAY,PANAMA CITY,32404
FL,BAY,PANAMA CITY,32405
FL,BAY,PANAMA CITY,32406
FL,BAY,PANAMA CITY,32408
FL,BAY,PANAMA CITY,32409
FL,BAY,PANAMA CITY,32411
FL,BAY,PANAMA CITY,32412
FL,BAY,PANAMA CITY,32417
FL,BAY,PANAMA CITY BEACH,32407
FL,BAY,PANAMA CITY BEACH,32413
FL,BAY,YOUNGSTOWN,32466
FL,BRADFORD,BROOKER,32622
FL,BRADFORD,GRAHAM,32042
FL,BRADFORD,HAMPTON,32044
FL,BRADFORD,LAWTEY,32058
FL,BRADFORD,STARKE,32091
FL,BREVARD,CAPE CANAVERAL,32920
FL,BREVARD,COCOA,32922
FL,BREVARD,COCOA,32923
FL,BREVARD,COCOA,32924
FL,BREVARD,COCOA,32926
FL,BREVARD,COCOA,32927
FL,BREVARD,COCOA BEACH,32931
FL,BREVARD,COCOA BEACH,32932
FL,BREVARD,GRANT,32949
FL,BREVARD,INDIALANTIC,32903
FL,BREVARD,MALABAR,32950
FL,BREVARD,MELBOURNE,32901
FL,BREVARD,MELBOURNE,32902
FL,BREVARD,MELBOURNE,32904
FL,BREVARD,MELBOURNE,32912
FL,BREVARD,MELBOURNE,32919
FL,BREVARD,MELBOURNE,32934
FL,BREVARD,MELBOURNE,32935
FL,BREVARD,MELBOURNE,32936
FL,BREVARD,MELBOURNE,32940
FL,BREVARD,MELBOURNE,32941
FL,BREVARD,MELBOURNE BEACH,32951
FL,BREVARD,MERRITT ISLAND,32952
FL,BREVARD,MERRITT ISLAND,32953
FL,BREVARD,MERRITT ISLAND,32954
FL,BREVARD,MIMS,32754
FL,BREVARD,ORLANDO,32815
FL,BREVARD,ORLANDO,32899
FL,BREVARD,PALM BAY,32905
FL,BREVARD,PALM BAY,32906
FL,BREVARD,PALM BAY,32907
FL,BREVARD,PALM BAY,32908
FL,BREVARD,PALM BAY,32909
FL,BREVARD,PALM BAY,32910
FL,BREVARD,PALM BAY,32911
FL,BREVARD,PATRICK AFB,32925
FL,BREVARD,ROCKLEDGE,32955
FL,BREVARD,ROCKLEDGE,32956
FL,BREVARD,SATELLITE BEACH,32937
FL,BREVARD,SCOTTSMOOR,32775
FL,BREVARD,SEBASTIAN,32976
FL,BREVARD,SHARPES,32959
FL,BREVARD,TITUSVILLE,32780
FL,BREVARD,TITUSVILLE,32781
FL,BREVARD,TITUSVILLE,32783
FL,BREVARD,TITUSVILLE,32796
FL,CALHOUN,ALTHA,32421
FL,CALHOUN,BLOUNTSTOWN,32424
FL,CALHOUN,CLARKSVILLE,32430
FL,CALHOUN,WEWAHITCHKA,32449
FL,CITRUS,BEVERLY HILLS,34464
FL,CITRUS,BEVERLY HILLS,34465
FL,CITRUS,CRYSTAL RIVER,34423
FL,CITRUS,CRYSTAL RIVER,34428
FL,CITRUS,CRYSTAL RIVER,34429
FL,CITRUS,DUNNELLON,34433
FL,CITRUS,DUNNELLON,34434
FL,CITRUS,FLORAL CITY,34436
FL,CITRUS,HERNANDO,34441
FL,CITRUS,HERNANDO,34442
FL,CITRUS,HOLDER,34445
FL,CITRUS,HOMOSASSA,34446
FL,CITRUS,HOMOSASSA,34448
FL,CITRUS,HOMOSASSA,34487
FL,CITRUS,HOMOSASSA SPRINGS,34447
FL,CITRUS,INVERNESS,34450
FL,CITRUS,INVERNESS,34451
FL,CITRUS,INVERNESS,34452
FL,CITRUS,INVERNESS,34453
FL,CITRUS,LECANTO,34460
FL,CITRUS,LECANTO,34461
FL,CLAY,DOCTORS INLET,32030
FL,CLAY,FLEMING ISLAND,32003
FL,CLAY,FLEMING ISLAND,32006
FL,CLAY,GREEN COVE SPRINGS,32043
FL,CLAY,KEYSTONE HEIGHTS,32656
FL,CLAY,LAKE GENEVA,32160
FL,CLAY,MIDDLEBURG,32050
FL,CLAY,MIDDLEBURG,32068
FL,CLAY,ORANGE PARK,32065
FL,CLAY,ORANGE PARK,32067
FL,CLAY,ORANGE PARK,32073
FL,CLAY,PENNEY FARMS,32079
FL,COLUMBIA,FORT WHITE,32038
FL,COLUMBIA,LAKE CITY,32024
FL,COLUMBIA,LAKE CITY,32025
FL,COLUMBIA,LAKE CITY,32055
FL,COLUMBIA,LAKE CITY,32056
FL,COLUMBIA,LULU,32061
FL,DIXIE,CROSS CITY,32628
FL,DIXIE,HORSESHOE BEACH,32648
FL,DIXIE,OLD TOWN,32680
FL,DIXIE,SUWANNEE,32692
FL,DUVAL,ATLANTIC BEACH,32233
FL,DUVAL,JACKSONVILLE,32099
FL,DUVAL,JACKSONVILLE,32201
FL,DUVAL,JACKSONVILLE,32202
FL,DUVAL,JACKSONVILLE,32203
FL,DUVAL,JACKSONVILLE,32204
FL,DUVAL,JACKSONVILLE,32205
FL,DUVAL,JACKSONVILLE,32206
FL,DUVAL,JACKSONVILLE,32207
FL,DUVAL,JACKSONVILLE,32208
FL,DUVAL,JACKSONVILLE,32209
FL,DUVAL,JACKSONVILLE,32210
FL,DUVAL,JACKSONVILLE,32211
FL,DUVAL,JACKSONVILLE,32212
FL,DUVAL,JACKSONVILLE,32214
FL,DUVAL,JACKSONVILLE,32216
FL,DUVAL,JACKSONVILLE,32217
FL,DUVAL,JACKSONVILLE,32218
FL,DUVAL,JACKSONVILLE,32219
FL,DUVAL,JACKSONVILLE,32220
FL,DUVAL,JACKSONVILLE,32221
FL,DUVAL,JACKSONVILLE,32222
FL,DUVAL,JACKSONVILLE,32223
FL,DUVAL,JACKSONVILLE,32224
FL,DUVAL,JACKSONVILLE,32225
FL,DUVAL,JACKSONVILLE,32226
FL,DUVAL,JACKSONVILLE,32227
FL,DUVAL,JACKSONVILLE,32228
FL,DUVAL,JACKSONVILLE,32229
FL,DUVAL,JACKSONVILLE,32231
FL,DUVAL,JACKSONVILLE,32232
FL,DUVAL,JACKSONVILLE,32234
FL,DUVAL,JACKSONVILLE,32235
FL,DUVAL,JACKSONVILLE,32236
FL,DUVAL,JACKSONVILLE,32237
FL,DUVAL,JACKSONVILLE,32238
FL,DUVAL,JACKSONVILLE,32239
FL,DUVAL,JACKSONVILLE,32241
FL,DUVAL,JACKSONVILLE,32244
FL,DUVAL,JACKSONVILLE,32245
FL,DUVAL,JACKSONVILLE,32246
FL,DUVAL,JACKSONVILLE,32247
FL,DUVAL,JACKSONVILLE,32254
FL,DUVAL,JACKSONVILLE,32255
FL,DUVAL,JACKSONVILLE,32256
FL,DUVAL,JACKSONVILLE,32257
FL,DUVAL,JACKSONVILLE,32258
FL,DUVAL,JACKSONVILLE,32277
FL,DUVAL,JACKSONVILLE BEACH,32240
FL,DUVAL,JACKSONVILLE BEACH,32250
FL,DUVAL,NEPTUNE BEACH,32266
FL,ESCAMBIA,CANTONMENT,32533
FL,ESCAMBIA,CENTURY,32535
FL,ESCAMBIA,GONZALEZ,32560
FL,ESCAMBIA,MC DAVID,32568
FL,ESCAMBIA,MOLINO,32577
FL,ESCAMBIA,PENSACOLA,32501
FL,ESCAMBIA,PENSACOLA,32502
FL,ESCAMBIA,PENSACOLA,32503
FL,ESCAMBIA,PENSACOLA,32504
FL,ESCAMBIA,PENSACOLA,32505
FL,ESCAMBIA,PENSACOLA,32506
FL,ESCAMBIA,PENSACOLA,32507
FL,ESCAMBIA,PENSACOLA,32508
FL,ESCAMBIA,PENSACOLA,32509
FL,ESCAMBIA,PENSACOLA,32511
FL,ESCAMBIA,PENSACOLA,32512
FL,ESCAMBIA,PENSACOLA,32513
FL,ESCAMBIA,PENSACOLA,32514
FL,ESCAMBIA,PENSACOLA,32516
FL,ESCAMBIA,PENSACOLA,32520
FL,ESCAMBIA,PENSACOLA,32521
FL,ESCAMBIA,PENSACOLA,32522
FL,ESCAMBIA,PENSACOLA,32523
FL,ESCAMBIA,PENSACOLA,32524
FL,ESCAMBIA,PENSACOLA,32526
FL,ESCAMBIA,PENSACOLA,32534
FL,ESCAMBIA,PENSACOLA,32559
FL,ESCAMBIA,PENSACOLA,32591
FL,FLAGLER,BUNNELL,32110
FL,FLAGLER,FLAGLER BEACH,32136
FL,FLAGLER,PALM COAST,32135
FL,FLAGLER,PALM COAST,32137
FL,FLAGLER,PALM COAST,32142
FL,FLAGLER,PALM COAST,32143
FL,FLAGLER,PALM COAST,32164
FL,FRANKLIN,APALACHICOLA,32320
FL,FRANKLIN,APALACHICOLA,32329
FL,FRANKLIN,CARRABELLE,32322
FL,FRANKLIN,EASTPOINT,32328
FL,FRANKLIN,LANARK VILLAGE,32323
FL,GADSDEN,CHATTAHOOCHEE,32324
FL,GADSDEN,GREENSBORO,32330
FL,GADSDEN,GRETNA,32332
FL,GADSDEN,HAVANA,32333
FL,GADSDEN,MIDWAY,32343
FL,GADSDEN,QUINCY,32351
FL,GADSDEN,QUINCY,32352
FL,GADSDEN,QUINCY,32353
FL,GILCHRIST,BELL,32619
FL,GILCHRIST,TRENTON,32693
FL,GULF,PORT SAINT JOE,32456
FL,GULF,PORT SAINT JOE,32457
FL,GULF,WEWAHITCHKA,32465
FL,HAMILTON,JASPER,32052
FL,HAMILTON,JENNINGS,32053
FL,HAMILTON,WHITE SPRINGS,32096
FL,HARDEE,BOWLING GREEN,33834
FL,HARDEE,ONA,33865
FL,HARDEE,WAUCHULA,33873
FL,HARDEE,ZOLFO SPRINGS,33890
FL,HERNANDO,BROOKSVILLE,34601
FL,HERNANDO,BROOKSVILLE,34602
FL,HERNANDO,BROOKSVILLE,34603
FL,HERNANDO,BROOKSVILLE,34604
FL,HERNANDO,BROOKSVILLE,34605
FL,HERNANDO,BROOKSVILLE,34613
FL,HERNANDO,BROOKSVILLE,34614
FL,HERNANDO,ISTACHATTA,34636
FL,HERNANDO,NOBLETON,34661
FL,HERNANDO,SPRING HILL,34606
FL,HERNANDO,SPRING HILL,34607
FL,HERNANDO,SPRING HILL,34608
FL,HERNANDO,SPRING HILL,34609
FL,HERNANDO,SPRING HILL,34611
FL,HIGHLANDS,AVON PARK,33825
FL,HIGHLANDS,AVON PARK,33826
FL,HIGHLANDS,LAKE PLACID,33852
FL,HIGHLANDS,LAKE PLACID,33862
FL,HIGHLANDS,LORIDA,33857
FL,HIGHLANDS,SEBRING,33870
FL,HIGHLANDS,SEBRING,33871
FL,HIGHLANDS,SEBRING,33872
FL,HIGHLANDS,SEBRING,33875
FL,HIGHLANDS,SEBRING,33876
FL,HIGHLANDS,VENUS,33960
FL,HILLSBOROUGH,BALM,33503
FL,HILLSBOROUGH,BRANDON,33508
FL,HILLSBOROUGH,BRANDON,33509
FL,HILLSBOROUGH,BRANDON,33510
FL,HILLSBOROUGH,BRANDON,33511
FL,HILLSBOROUGH,DOVER,33527
FL,HILLSBOROUGH,DURANT,33530
FL,HILLSBOROUGH,GIBSONTON,33534
FL,HILLSBOROUGH,LITHIA,33547
FL,HILLSBOROUGH,LUTZ,33548
FL,HILLSBOROUGH,LUTZ,33549
FL,HILLSBOROUGH,LUTZ,33558
FL,HILLSBOROUGH,LUTZ,33559
FL,HILLSBOROUGH,MANGO,33550
FL,HILLSBOROUGH,ODESSA,33556
FL,HILLSBOROUGH,PLANT CITY,33563
FL,HILLSBOROUGH,PLANT CITY,33564
FL,HILLSBOROUGH,PLANT CITY,33565
FL,HILLSBOROUGH,PLANT CITY,33566
FL,HILLSBOROUGH,PLANT CITY,33567
FL,HILLSBOROUGH,RIVERVIEW,33568
FL,HILLSBOROUGH,RIVERVIEW,33569
FL,HILLSBOROUGH,RIVERVIEW,33578
FL,HILLSBOROUGH,RIVERVIEW,33579
FL,HILLSBOROUGH,SEFFNER,33583
FL,HILLSBOROUGH,SEFFNER,33584
FL,HILLSBOROUGH,SYDNEY,33587
FL,HILLSBOROUGH,TAMPA,33603
FL,HILLSBOROUGH,TAMPA,33604
FL,HILLSBOROUGH,TAMPA,33607
FL,HILLSBOROUGH,TAMPA,33610
FL,HILLSBOROUGH,TAMPA,33612
FL,HILLSBOROUGH,TAMPA,33613
FL,HILLSBOROUGH,TAMPA,33614
FL,HILLSBOROUGH,TAMPA,33615
FL,HILLSBOROUGH,TAMPA,33617
FL,HILLSBOROUGH,TAMPA,33618
FL,HILLSBOROUGH,TAMPA,33620
FL,HILLSBOROUGH,TAMPA,33624
FL,HILLSBOROUGH,TAMPA,33625
FL,HILLSBOROUGH,TAMPA,33626
FL,HILLSBOROUGH,TAMPA,33630
FL,HILLSBOROUGH,TAMPA,33634
FL,HILLSBOROUGH,TAMPA,33635
FL,HILLSBOROUGH,TAMPA,33637
FL,HILLSBOROUGH,TAMPA,33646
FL,HILLSBOROUGH,TAMPA,33647
FL,HILLSBOROUGH,THONOTOSASSA,33592
FL,HILLSBOROUGH,VALRICO,33594
FL,HILLSBOROUGH,VALRICO,33595
FL,HILLSBOROUGH,VALRICO,33596
FL,HILLSBOROUGH,WIMAUMA,33598
FL,HOLMES,BONIFAY,32425
FL,HOLMES,NOMA,32452
FL,HOLMES,PONCE DE LEON,32455
FL,HOLMES,WESTVILLE,32464
FL,INDIAN RIVER,FELLSMERE,32948
FL,INDIAN RIVER,ROSELAND,32957
FL,INDIAN RIVER,SEBASTIAN,32958
FL,INDIAN RIVER,SEBASTIAN,32978
FL,INDIAN RIVER,VERO BEACH,32960
FL,INDIAN RIVER,VERO BEACH,32961
FL,INDIAN RIVER,VERO BEACH,32962
FL,INDIAN RIVER,VERO BEACH,32963
FL,INDIAN RIVER,VERO BEACH,32964
FL,INDIAN RIVER,VERO BEACH,32965
FL,INDIAN RIVER,VERO BEACH,32966
FL,INDIAN RIVER,VERO BEACH,32967
FL,INDIAN RIVER,VERO BEACH,32968
FL,INDIAN RIVER,VERO BEACH,32969
FL,INDIAN RIVER,WABASSO,32970
FL,INDIAN RIVER,WINTER BEACH,32971
FL,JACKSON,ALFORD,32420
FL,JACKSON,BASCOM,32423
FL,JACKSON,CAMPBELLTON,32426
FL,JACKSON,COTTONDALE,32431
FL,JACKSON,CYPRESS,32432
FL,JACKSON,GRACEVILLE,32440
FL,JACKSON,GRAND RIDGE,32442
FL,JACKSON,GREENWOOD,32443
FL,JACKSON,MALONE,32445
FL,JACKSON,MARIANNA,32446
FL,JACKSON,MARIANNA,32447
FL,JACKSON,MARIANNA,32448
FL,JACKSON,SNEADS,32460
FL,JEFFERSON,LAMONT,32336
FL,JEFFERSON,LLOYD,32337
FL,JEFFERSON,MONTICELLO,32344
FL,JEFFERSON,MONTICELLO,32345
FL,JEFFERSON,WACISSA,32361
FL,LAFAYETTE,DAY,32013
FL,LAFAYETTE,MAYO,32066
FL,LAKE,ALTOONA,32702
FL,LAKE,ASTATULA,34705
FL,LAKE,ASTOR,32102
FL,LAKE,CLERMONT,34711
FL,LAKE,CLERMONT,34712
FL,LAKE,CLERMONT,34713
FL,LAKE,CLERMONT,34714
FL,LAKE,CLERMONT,34715
FL,LAKE,EUSTIS,32726
FL,LAKE,EUSTIS,32727
FL,LAKE,EUSTIS,32736
FL,LAKE,FERNDALE,34729
FL,LAKE,FRUITLAND PARK,34731
FL,LAKE,GRAND ISLAND,32735
FL,LAKE,GROVELAND,34736
FL,LAKE,HOWEY IN THE HILLS,34737
FL,LAKE,LADY LAKE,32158
FL,LAKE,LADY LAKE,32159
FL,LAKE,LEESBURG,34748
FL,LAKE,LEESBURG,34749
FL,LAKE,LEESBURG,34788
FL,LAKE,LEESBURG,34789
FL,LAKE,MASCOTTE,34753
FL,LAKE,MINNEOLA,34755
FL,LAKE,MONTVERDE,34756
FL,LAKE,MOUNT DORA,32756
FL,LAKE,MOUNT DORA,32757
FL,LAKE,OKAHUMPKA,34762
FL,LAKE,PAISLEY,32767
FL,LAKE,SORRENTO,32776
FL,LAKE,TAVARES,32778
FL,LAKE,UMATILLA,32784
FL,LAKE,YALAHA,34797
FL,LEON,TALLAHASSEE,32301
FL,LEON,TALLAHASSEE,32302
FL,LEON,TALLAHASSEE,32303
FL,LEON,TALLAHASSEE,32304
FL,LEON,TALLAHASSEE,32305
FL,LEON,TALLAHASSEE,32306
FL,LEON,TALLAHASSEE,32307
FL,LEON,TALLAHASSEE,32308
FL,LEON,TALLAHASSEE,32309
FL,LEON,TALLAHASSEE,32310
FL,LEON,TALLAHASSEE,32311
FL,LEON,TALLAHASSEE,32312
FL,LEON,TALLAHASSEE,32313
FL,LEON,TALLAHASSEE,32314
FL,LEON,TALLAHASSEE,32315
FL,LEON,TALLAHASSEE,32316
FL,LEON,TALLAHASSEE,32317
FL,LEON,TALLAHASSEE,32318
FL,LEON,TALLAHASSEE,32395
FL,LEON,TALLAHASSEE,32399
FL,LEON,WOODVILLE,32362
FL,LEVY,BRONSON,32621
FL,LEVY,CEDAR KEY,32625
FL,LEVY,CHIEFLAND,32626
FL,LEVY,CHIEFLAND,32644
FL,LEVY,GULF HAMMOCK,32639
FL,LEVY,INGLIS,34449
FL,LEVY,MORRISTON,32668
FL,LEVY,OTTER CREEK,32683
FL,LEVY,WILLISTON,32696
FL,LEVY,YANKEETOWN,34498
FL,LIBERTY,BRISTOL,32321
FL,LIBERTY,HOSFORD,32334
FL,LIBERTY,SUMATRA,32335
FL,LIBERTY,TELOGIA,32360
FL,MADISON,GREENVILLE,32331
FL,MADISON,LEE,32059
FL,MADISON,MADISON,32340
FL,MADISON,MADISON,32341
FL,MADISON,PINETTA,32350
FL,MANATEE,ANNA MARIA,34216
FL,MANATEE,CORTEZ,34215
FL,MANATEE,ELLENTON,34222
FL,MANATEE,LONGBOAT KEY,34228
FL,MANATEE,MYAKKA CITY,34251
FL,MANATEE,ONECO,34264
FL,MANATEE,PALMETTO,34220
FL,MANATEE,PALMETTO,34221
FL,MANATEE,PARRISH,34219
FL,MANATEE,TALLEVAST,34270
FL,MANATEE,TERRA CEIA,34250
FL,MARION,ANTHONY,32617
FL,MARION,BELLEVIEW,34420
FL,MARION,BELLEVIEW,34421
FL,MARION,CANDLER,32111
FL,MARION,CITRA,32113
FL,MARION,DUNNELLON,34430
FL,MARION,DUNNELLON,34431
FL,MARION,DUNNELLON,34432
FL,MARION,EASTLAKE WEIR,32133
FL,MARION,FAIRFIELD,32634
FL,MARION,FORT MC COY,32134
FL,MARION,LOWELL,32663
FL,MARION,MC INTOSH,32664
FL,MARION,OCALA,34470
FL,MARION,OCALA,34471
FL,MARION,OCALA,34472
FL,MARION,OCALA,34473
FL,MARION,OCALA,34474
FL,MARION,OCALA,34475
FL,MARION,OCALA,34476
FL,MARION,OCALA,34477
FL,MARION,OCALA,34478
FL,MARION,OCALA,34479
FL,MARION,OCALA,34480
FL,MARION,OCALA,34481
FL,MARION,OCALA,34482
FL,MARION,OCALA,34483
FL,MARION,OCKLAWAHA,32179
FL,MARION,OCKLAWAHA,32183
FL,MARION,ORANGE LAKE,32681
FL,MARION,ORANGE SPRINGS,32182
FL,MARION,REDDICK,32686
FL,MARION,SILVER SPRINGS,34488
FL,MARION,SILVER SPRINGS,34489
FL,MARION,SPARR,32192
FL,MARION,SUMMERFIELD,34491
FL,MARION,SUMMERFIELD,34492
FL,MARION,WEIRSDALE,32195
FL,MARTIN,HOBE SOUND,33455
FL,MARTIN,HOBE SOUND,33475
FL,MARTIN,PALM CITY,34990
FL,MARTIN,PALM CITY,34991
FL,MARTIN,PORT SALERNO,34992
FL,MARTIN,STUART,34994
FL,MARTIN,STUART,34995
FL,MARTIN,STUART,34996
FL,MARTIN,STUART,34997
FL,NASSAU,BRYCEVILLE,32009
FL,NASSAU,CALLAHAN,32011
FL,NASSAU,FERNANDINA BEACH,32034
FL,NASSAU,FERNANDINA BEACH,32035
FL,NASSAU,HILLIARD,32046
FL,NASSAU,YULEE,32041
FL,NASSAU,YULEE,32097
FL,OKALOOSA,BAKER,32531
FL,OKALOOSA,CRESTVIEW,32536
FL,OKALOOSA,CRESTVIEW,32539
FL,OKALOOSA,DESTIN,32540
FL,OKALOOSA,DESTIN,32541
FL,OKALOOSA,EGLIN AFB,32542
FL,OKALOOSA,FORT WALTON BEACH,32547
FL,OKALOOSA,FORT WALTON BEACH,32548
FL,OKALOOSA,FORT WALTON BEACH,32549
FL,OKALOOSA,HOLT,32564
FL,OKALOOSA,HURLBURT FIELD,32544
FL,OKALOOSA,LAUREL HILL,32567
FL,OKALOOSA,MARY ESTHER,32569
FL,OKALOOSA,MILLIGAN,32537
FL,OKALOOSA,NICEVILLE,32578
FL,OKALOOSA,NICEVILLE,32588
FL,OKALOOSA,SHALIMAR,32579
FL,OKALOOSA,VALPARAISO,32580
FL,OKEECHOBEE,OKEECHOBEE,34972
FL,OKEECHOBEE,OKEECHOBEE,34973
FL,OKEECHOBEE,OKEECHOBEE,34974
FL,ORANGE,APOPKA,32703
FL,ORANGE,APOPKA,32704
FL,ORANGE,APOPKA,32712
FL,ORANGE,CHRISTMAS,32709
FL,ORANGE,CLARCONA,32710
FL,ORANGE,GOTHA,34734
FL,ORANGE,KILLARNEY,34740
FL,ORANGE,MAITLAND,32751
FL,ORANGE,MAITLAND,32794
FL,ORANGE,OAKLAND,34760
FL,ORANGE,OCOEE,34761
FL,ORANGE,ORLANDO,32801
FL,ORANGE,ORLANDO,32802
FL,ORANGE,ORLANDO,32803
FL,ORANGE,ORLANDO,32804
FL,ORANGE,ORLANDO,32805
FL,ORANGE,ORLANDO,32806
FL,ORANGE,ORLANDO,32807
FL,ORANGE,ORLANDO,32808
FL,ORANGE,ORLANDO,32809
FL,ORANGE,ORLANDO,32810
FL,ORANGE,ORLANDO,32811
FL,ORANGE,ORLANDO,32812
FL,ORANGE,ORLANDO,32814
FL,ORANGE,ORLANDO,32816
FL,ORANGE,ORLANDO,32817
FL,ORANGE,ORLANDO,32818
FL,ORANGE,ORLANDO,32819
FL,ORANGE,ORLANDO,32820
FL,ORANGE,ORLANDO,32821
FL,ORANGE,ORLANDO,32822
FL,ORANGE,ORLANDO,32824
FL,ORANGE,ORLANDO,32825
FL,ORANGE,ORLANDO,32826
FL,ORANGE,ORLANDO,32827
FL,ORANGE,ORLANDO,32828
FL,ORANGE,ORLANDO,32829
FL,ORANGE,ORLANDO,32830
FL,ORANGE,ORLANDO,32831
FL,ORANGE,ORLANDO,32832
FL,ORANGE,ORLANDO,32833
FL,ORANGE,ORLANDO,32834
FL,ORANGE,ORLANDO,32835
FL,ORANGE,ORLANDO,32836
FL,ORANGE,ORLANDO,32837
FL,ORANGE,ORLANDO,32839
FL,ORANGE,ORLANDO,32853
FL,ORANGE,ORLANDO,32854
FL,ORANGE,ORLANDO,32855
FL,ORANGE,ORLANDO,32856
FL,ORANGE,ORLANDO,32857
FL,ORANGE,ORLANDO,32858
FL,ORANGE,ORLANDO,32859
FL,ORANGE,ORLANDO,32860
FL,ORANGE,ORLANDO,32861
FL,ORANGE,ORLANDO,32862
FL,ORANGE,ORLANDO,32867
FL,ORANGE,ORLANDO,32868
FL,ORANGE,ORLANDO,32869
FL,ORANGE,ORLANDO,32872
FL,ORANGE,ORLANDO,32877
FL,ORANGE,ORLANDO,32878
FL,ORANGE,ORLANDO,32885
FL,ORANGE,ORLANDO,32886
FL,ORANGE,ORLANDO,32887
FL,ORANGE,ORLANDO,32891
FL,ORANGE,ORLANDO,32896
FL,ORANGE,ORLANDO,32897
FL,ORANGE,PLYMOUTH,32768
FL,ORANGE,TANGERINE,32777
FL,ORANGE,WINDERMERE,34786
FL,ORANGE,WINTER GARDEN,34777
FL,ORANGE,WINTER GARDEN,34778
FL,ORANGE,WINTER GARDEN,34787
FL,ORANGE,WINTER PARK,32789
FL,ORANGE,WINTER PARK,32790
FL,ORANGE,WINTER PARK,32792
FL,ORANGE,WINTER PARK,32793
FL,ORANGE,ZELLWOOD,32798
FL,OSCEOLA,INTERCESSION CITY,33848
FL,OSCEOLA,KENANSVILLE,34739
FL,OSCEOLA,KISSIMMEE,34741
FL,OSCEOLA,KISSIMMEE,34742
FL,OSCEOLA,KISSIMMEE,34743
FL,OSCEOLA,KISSIMMEE,34744
FL,OSCEOLA,KISSIMMEE,34745
FL,OSCEOLA,KISSIMMEE,34746
FL,OSCEOLA,KISSIMMEE,34747
FL,OSCEOLA,KISSIMMEE,34758
FL,OSCEOLA,SAINT CLOUD,34769
FL,OSCEOLA,SAINT CLOUD,34770
FL,OSCEOLA,SAINT CLOUD,34771
FL,OSCEOLA,SAINT CLOUD,34772
FL,OSCEOLA,SAINT CLOUD,34773
FL,PASCO,ARIPEKA,34679
FL,PASCO,CRYSTAL SPRINGS,33524
FL,PASCO,DADE CITY,33523
FL,PASCO,DADE CITY,33525
FL,PASCO,DADE CITY,33526
FL,PASCO,ELFERS,34680
FL,PASCO,HOLIDAY,34690
FL,PASCO,HOLIDAY,34691
FL,PASCO,HOLIDAY,34692
FL,PASCO,HUDSON,34667
FL,PASCO,HUDSON,34669
FL,PASCO,HUDSON,34674
FL,PASCO,LACOOCHEE,33537
FL,PASCO,LAND O LAKES,34637
FL,PASCO,LAND O LAKES,34638
FL,PASCO,LAND O LAKES,34639
FL,PASCO,NEW PORT RICHEY,34652
FL,PASCO,NEW PORT RICHEY,34653
FL,PASCO,NEW PORT RICHEY,34654
FL,PASCO,NEW PORT RICHEY,34655
FL,PASCO,NEW PORT RICHEY,34656
FL,PASCO,PORT RICHEY,34668
FL,PASCO,PORT RICHEY,34673
FL,PASCO,SAINT LEO,33574
FL,PASCO,SAN ANTONIO,33576
FL,PASCO,SPRING HILL,34610
FL,PASCO,TRILBY,33593
FL,PASCO,WESLEY CHAPEL,33543
FL,PASCO,WESLEY CHAPEL,33544
FL,PASCO,WESLEY CHAPEL,33545
FL,PASCO,ZEPHYRHILLS,33539
FL,PASCO,ZEPHYRHILLS,33540
FL,PASCO,ZEPHYRHILLS,33541
FL,PASCO,ZEPHYRHILLS,33542
FL,PINELLAS,BAY PINES,33744
FL,PINELLAS,BELLEAIR BEACH,33786
FL,PINELLAS,CLEARWATER,33755
FL,PINELLAS,CLEARWATER,33756
FL,PINELLAS,CLEARWATER,33757
FL,PINELLAS,CLEARWATER,33758
FL,PINELLAS,CLEARWATER,33759
FL,PINELLAS,CLEARWATER,33760
FL,PINELLAS,CLEARWATER,33761
FL,PINELLAS,CLEARWATER,33762
FL,PINELLAS,CLEARWATER,33763
FL,PINELLAS,CLEARWATER,33764
FL,PINELLAS,CLEARWATER,33765
FL,PINELLAS,CLEARWATER,33766
FL,PINELLAS,CLEARWATER,33769
FL,PINELLAS,CLEARWATER BEACH,33767
FL,PINELLAS,CRYSTAL BEACH,34681
FL,PINELLAS,DUNEDIN,34697
FL,PINELLAS,DUNEDIN,34698
FL,PINELLAS,INDIAN ROCKS BEACH,33785
FL,PINELLAS,LARGO,33770
FL,PINELLAS,LARGO,33771
FL,PINELLAS,LARGO,33773
FL,PINELLAS,LARGO,33774
FL,PINELLAS,LARGO,33778
FL,PINELLAS,LARGO,33779
FL,PINELLAS,OLDSMAR,34677
FL,PINELLAS,OZONA,34660
FL,PINELLAS,PALM HARBOR,34682
FL,PINELLAS,PALM HARBOR,34683
FL,PINELLAS,PALM HARBOR,34684
FL,PINELLAS,PALM HARBOR,34685
FL,PINELLAS,PINELLAS PARK,33780
FL,PINELLAS,PINELLAS PARK,33781
FL,PINELLAS,PINELLAS PARK,33782
FL,PINELLAS,SAFETY HARBOR,34695
FL,PINELLAS,SAINT PETERSBURG,33701
FL,PINELLAS,SAINT PETERSBURG,33702
FL,PINELLAS,SAINT PETERSBURG,33703
FL,PINELLAS,SAINT PETERSBURG,33704
FL,PINELLAS,SAINT PETERSBURG,33705
FL,PINELLAS,SAINT PETERSBURG,33706
FL,PINELLAS,SAINT PETERSBURG,33707
FL,PINELLAS,SAINT PETERSBURG,33708
FL,PINELLAS,SAINT PETERSBURG,33709
FL,PINELLAS,SAINT PETERSBURG,33710
FL,PINELLAS,SAINT PETERSBURG,33711
FL,PINELLAS,SAINT PETERSBURG,33712
FL,PINELLAS,SAINT PETERSBURG,33713
FL,PINELLAS,SAINT PETERSBURG,33714
FL,PINELLAS,SAINT PETERSBURG,33715
FL,PINELLAS,SAINT PETERSBURG,33716
FL,PINELLAS,SAINT PETERSBURG,33729
FL,PINELLAS,SAINT PETERSBURG,33730
FL,PINELLAS,SAINT PETERSBURG,33731
FL,PINELLAS,SAINT PETERSBURG,33732
FL,PINELLAS,SAINT PETERSBURG,33733
FL,PINELLAS,SAINT PETERSBURG,33734
FL,PINELLAS,SAINT PETERSBURG,33736
FL,PINELLAS,SAINT PETERSBURG,33738
FL,PINELLAS,SAINT PETERSBURG,33740
FL,PINELLAS,SAINT PETERSBURG,33741
FL,PINELLAS,SAINT PETERSBURG,33742
FL,PINELLAS,SAINT PETERSBURG,33743
FL,PINELLAS,SAINT PETERSBURG,33747
FL,PINELLAS,SAINT PETERSBURG,33784
FL,PINELLAS,SEMINOLE,33772
FL,PINELLAS,SEMINOLE,33775
FL,PINELLAS,SEMINOLE,33776
FL,PINELLAS,SEMINOLE,33777
FL,PINELLAS,TARPON SPRINGS,34688
FL,PINELLAS,TARPON SPRINGS,34689
FL,POLK,ALTURAS,33820
FL,POLK,AUBURNDALE,33823
FL,POLK,BABSON PARK,33827
FL,POLK,BARTOW,33830
FL,POLK,BARTOW,33831
FL,POLK,BRADLEY,33835
FL,POLK,DAVENPORT,33836
FL,POLK,DAVENPORT,33837
FL,POLK,DAVENPORT,33896
FL,POLK,DAVENPORT,33897
FL,POLK,DUNDEE,33838
FL,POLK,EAGLE LAKE,33839
FL,POLK,EATON PARK,33840
FL,POLK,FORT MEADE,33841
FL,POLK,FROSTPROOF,33843
FL,POLK,HAINES CITY,33844
FL,POLK,HAINES CITY,33845
FL,POLK,HIGHLAND CITY,33846
FL,POLK,HOMELAND,33847
FL,POLK,INDIAN LAKE ESTATES,33855
FL,POLK,KATHLEEN,33849
FL,POLK,KISSIMMEE,34759
FL,POLK,LAKE ALFRED,33850
FL,POLK,LAKE HAMILTON,33851
FL,POLK,LAKE WALES,33853
FL,POLK,LAKE WALES,33859
FL,POLK,LAKE WALES,33898
FL,POLK,LAKELAND,33801
FL,POLK,LAKELAND,33802
FL,POLK,LAKELAND,33803
FL,POLK,LAKELAND,33804
FL,POLK,LAKELAND,33805
FL,POLK,LAKELAND,33806
FL,POLK,LAKELAND,33807
FL,POLK,LAKELAND,33809
FL,POLK,LAKELAND,33810
FL,POLK,LAKELAND,33811
FL,POLK,LAKELAND,33812
FL,POLK,LAKELAND,33813
FL,POLK,LAKELAND,33815
FL,POLK,LAKESHORE,33854
FL,POLK,LOUGHMAN,33858
FL,POLK,MULBERRY,33860
FL,POLK,NALCREST,33856
FL,POLK,NICHOLS,33863
FL,POLK,POLK CITY,33868
FL,POLK,RIVER RANCH,33867
FL,POLK,WAVERLY,33877
FL,POLK,WINTER HAVEN,33880
FL,POLK,WINTER HAVEN,33881
FL,POLK,WINTER HAVEN,33882
FL,POLK,WINTER HAVEN,33883
FL,POLK,WINTER HAVEN,33884
FL,POLK,WINTER HAVEN,33885
FL,POLK,WINTER HAVEN,33888
FL,PUTNAM,BOSTWICK,32007
FL,PUTNAM,CRESCENT CITY,32112
FL,PUTNAM,EAST PALATKA,32131
FL,PUTNAM,FLORAHOME,32140
FL,PUTNAM,GEORGETOWN,32139
FL,PUTNAM,GRANDIN,32138
FL,PUTNAM,HOLLISTER,32147
FL,PUTNAM,INTERLACHEN,32148
FL,PUTNAM,INTERLACHEN,32149
FL,PUTNAM,LAKE COMO,32157
FL,PUTNAM,MELROSE,32666
FL,PUTNAM,PALATKA,32177
FL,PUTNAM,PALATKA,32178
FL,PUTNAM,POMONA PARK,32181
FL,PUTNAM,PUTNAM HALL,32185
FL,PUTNAM,SAN MATEO,32187
FL,PUTNAM,SATSUMA,32189
FL,PUTNAM,WELAKA,32193
FL,SAINT JOHNS,ELKTON,32033
FL,SAINT JOHNS,HASTINGS,32145
FL,SAINT JOHNS,JACKSONVILLE,32260
FL,SAINT JOHNS,PONTE VEDRA,32081
FL,SAINT JOHNS,PONTE VEDRA BEACH,32004
FL,SAINT JOHNS,PONTE VEDRA BEACH,32082
FL,SAINT JOHNS,SAINT AUGUSTINE,32080
FL,SAINT JOHNS,SAINT AUGUSTINE,32084
FL,SAINT JOHNS,SAINT AUGUSTINE,32085
FL,SAINT JOHNS,SAINT AUGUSTINE,32086
FL,SAINT JOHNS,SAINT AUGUSTINE,32092
FL,SAINT JOHNS,SAINT AUGUSTINE,32095
FL,SAINT JOHNS,SAINT JOHNS,32259
FL,SAINT LUCIE,FORT PIERCE,34945
FL,SAINT LUCIE,FORT PIERCE,34946
FL,SAINT LUCIE,FORT PIERCE,34947
FL,SAINT LUCIE,FORT PIERCE,34948
FL,SAINT LUCIE,FORT PIERCE,34949
FL,SAINT LUCIE,FORT PIERCE,34979
FL,SAINT LUCIE,FORT PIERCE,34981
FL,SANTA ROSA,BAGDAD,32530
FL,SANTA ROSA,GULF BREEZE,32561
FL,SANTA ROSA,GULF BREEZE,32562
FL,SANTA ROSA,GULF BREEZE,32563
FL,SANTA ROSA,JAY,32565
FL,SANTA ROSA,MILTON,32570
FL,SANTA ROSA,MILTON,32571
FL,SANTA ROSA,MILTON,32572
FL,SANTA ROSA,MILTON,32583
FL,SANTA ROSA,NAVARRE,32566
FL,SEMINOLE,ALTAMONTE SPRINGS,32701
FL,SEMINOLE,ALTAMONTE SPRINGS,32714
FL,SEMINOLE,ALTAMONTE SPRINGS,32715
FL,SEMINOLE,ALTAMONTE SPRINGS,32716
FL,SEMINOLE,CASSELBERRY,32707
FL,SEMINOLE,CASSELBERRY,32718
FL,SEMINOLE,CASSELBERRY,32730
FL,SEMINOLE,GENEVA,32732
FL,SEMINOLE,GOLDENROD,32733
FL,SEMINOLE,LAKE MARY,32746
FL,SEMINOLE,LAKE MARY,32795
FL,SEMINOLE,LAKE MONROE,32747
FL,SEMINOLE,LONGWOOD,32750
FL,SEMINOLE,LONGWOOD,32752
FL,SEMINOLE,LONGWOOD,32779
FL,SEMINOLE,LONGWOOD,32791
FL,SEMINOLE,MID FLORIDA,32745
FL,SEMINOLE,MID FLORIDA,32799
FL,SEMINOLE,OVIEDO,32762
FL,SEMINOLE,OVIEDO,32765
FL,SEMINOLE,OVIEDO,32766
FL,SEMINOLE,SANFORD,32771
FL,SEMINOLE,SANFORD,32772
FL,SEMINOLE,SANFORD,32773
FL,SEMINOLE,WINTER SPRINGS,32708
FL,SEMINOLE,WINTER SPRINGS,32719
FL,SUMTER,BUSHNELL,33513
FL,SUMTER,CENTER HILL,33514
FL,SUMTER,COLEMAN,33521
FL,SUMTER,LAKE PANASOFFKEE,33538
FL,SUMTER,OXFORD,34484
FL,SUMTER,SUMTERVILLE,33585
FL,SUMTER,THE VILLAGES,32162
FL,SUMTER,THE VILLAGES,32163
FL,SUMTER,WEBSTER,33597
FL,SUMTER,WILDWOOD,34785
FL,SUWANNEE,BRANFORD,32008
FL,SUWANNEE,LIVE OAK,32060
FL,SUWANNEE,LIVE OAK,32064
FL,SUWANNEE,MC ALPIN,32062
FL,SUWANNEE,O BRIEN,32071
FL,SUWANNEE,WELLBORN,32094
FL,TAYLOR,PERRY,32347
FL,TAYLOR,PERRY,32348
FL,TAYLOR,SALEM,32356
FL,TAYLOR,SHADY GROVE,32357
FL,TAYLOR,STEINHATCHEE,32359
FL,UNION,LAKE BUTLER,32054
FL,UNION,RAIFORD,32026
FL,UNION,RAIFORD,32083
FL,UNION,WORTHINGTON SPRINGS,32697
FL,VOLUSIA,BARBERVILLE,32105
FL,VOLUSIA,CASSADAGA,32706
FL,VOLUSIA,DAYTONA BEACH,32114
FL,VOLUSIA,DAYTONA BEACH,32115
FL,VOLUSIA,DAYTONA BEACH,32116
FL,VOLUSIA,DAYTONA BEACH,32117
FL,VOLUSIA,DAYTONA BEACH,32118
FL,VOLUSIA,DAYTONA BEACH,32119
FL,VOLUSIA,DAYTONA BEACH,32120
FL,VOLUSIA,DAYTONA BEACH,32121
FL,VOLUSIA,DAYTONA BEACH,32122
FL,VOLUSIA,DAYTONA BEACH,32124
FL,VOLUSIA,DAYTONA BEACH,32125
FL,VOLUSIA,DAYTONA BEACH,32126
FL,VOLUSIA,DAYTONA BEACH,32198
FL,VOLUSIA,DE LEON SPRINGS,32130
FL,VOLUSIA,DEBARY,32713
FL,VOLUSIA,DEBARY,32753
FL,VOLUSIA,DELAND,32720
FL,VOLUSIA,DELAND,32721
FL,VOLUSIA,DELAND,32723
FL,VOLUSIA,DELAND,32724
FL,VOLUSIA,DELTONA,32725
FL,VOLUSIA,DELTONA,32728
FL,VOLUSIA,DELTONA,32738
FL,VOLUSIA,DELTONA,32739
FL,VOLUSIA,EDGEWATER,32132
FL,VOLUSIA,EDGEWATER,32141
FL,VOLUSIA,GLENWOOD,32722
FL,VOLUSIA,LAKE HELEN,32744
FL,VOLUSIA,NEW SMYRNA BEACH,32168
FL,VOLUSIA,NEW SMYRNA BEACH,32169
FL,VOLUSIA,NEW SMYRNA BEACH,32170
FL,VOLUSIA,OAK HILL,32759
FL,VOLUSIA,ORANGE CITY,32763
FL,VOLUSIA,ORANGE CITY,32774
FL,VOLUSIA,ORMOND BEACH,32173
FL,VOLUSIA,ORMOND BEACH,32174
FL,VOLUSIA,ORMOND BEACH,32175
FL,VOLUSIA,ORMOND BEACH,32176
FL,VOLUSIA,OSTEEN,32764
FL,VOLUSIA,PIERSON,32180
FL,VOLUSIA,PORT ORANGE,32123
FL,VOLUSIA,PORT ORANGE,32127
FL,VOLUSIA,PORT ORANGE,32128
FL,VOLUSIA,PORT ORANGE,32129
FL,VOLUSIA,SEVILLE,32190
FL,WAKULLA,CRAWFORDVILLE,32326
FL,WAKULLA,CRAWFORDVILLE,32327
FL,WAKULLA,PANACEA,32346
FL,WAKULLA,SAINT MARKS,32355
FL,WAKULLA,SOPCHOPPY,32358
FL,WALTON,ARGYLE,32422
FL,WALTON,DEFUNIAK SPRINGS,32433
FL,WALTON,DEFUNIAK SPRINGS,32435
FL,WALTON,FREEPORT,32439
FL,WALTON,INLET BEACH,32461
FL,WALTON,MIRAMAR BEACH,32550
FL,WALTON,MOSSY HEAD,32434
FL,WALTON,PAXTON,32538
FL,WALTON,SANTA ROSA BEACH,32459
FL,WASHINGTON,CARYVILLE,32427
FL,WASHINGTON,CHIPLEY,32428
FL,WASHINGTON,EBRO,32437
FL,WASHINGTON,VERNON,32462
FL,WASHINGTON,WAUSAU,32463
FL,BROWARD,COCONUT CREEK,33097
FL,BROWARD,CORAL SPRINGS,33065
FL,BROWARD,CORAL SPRINGS,33071
FL,BROWARD,CORAL SPRINGS,33075
FL,BROWARD,DANIA,33004
FL,BROWARD,DEERFIELD BEACH,33441
FL,BROWARD,DEERFIELD BEACH,33442
FL,BROWARD,DEERFIELD BEACH,33443
FL,BROWARD,FORT LAUDERDALE,33301
FL,BROWARD,FORT LAUDERDALE,33302
FL,BROWARD,FORT LAUDERDALE,33303
FL,BROWARD,FORT LAUDERDALE,33304
FL,BROWARD,FORT LAUDERDALE,33305
FL,BROWARD,FORT LAUDERDALE,33306
FL,BROWARD,FORT LAUDERDALE,33307
FL,BROWARD,FORT LAUDERDALE,33308
FL,BROWARD,FORT LAUDERDALE,33309
FL,BROWARD,FORT LAUDERDALE,33310
FL,BROWARD,FORT LAUDERDALE,33311
FL,BROWARD,FORT LAUDERDALE,33312
FL,BROWARD,FORT LAUDERDALE,33313
FL,BROWARD,FORT LAUDERDALE,33314
FL,BROWARD,FORT LAUDERDALE,33315
FL,BROWARD,FORT LAUDERDALE,33316
FL,BROWARD,FORT LAUDERDALE,33317
FL,BROWARD,FORT LAUDERDALE,33318
FL,BROWARD,FORT LAUDERDALE,33319
FL,BROWARD,FORT LAUDERDALE,33320
FL,BROWARD,FORT LAUDERDALE,33321
FL,BROWARD,FORT LAUDERDALE,33322
FL,BROWARD,FORT LAUDERDALE,33323
FL,BROWARD,FORT LAUDERDALE,33324
FL,BROWARD,FORT LAUDERDALE,33325
FL,BROWARD,FORT LAUDERDALE,33326
FL,BROWARD,FORT LAUDERDALE,33327
FL,BROWARD,FORT LAUDERDALE,33328
FL,BROWARD,FORT LAUDERDALE,33329
FL,BROWARD,FORT LAUDERDALE,33330
FL,BROWARD,FORT LAUDERDALE,33331
FL,BROWARD,FORT LAUDERDALE,33332
FL,BROWARD,FORT LAUDERDALE,33334
FL,BROWARD,FORT LAUDERDALE,33335
FL,BROWARD,FORT LAUDERDALE,33336
FL,BROWARD,FORT LAUDERDALE,33337
FL,BROWARD,FORT LAUDERDALE,33338
FL,BROWARD,FORT LAUDERDALE,33339
FL,BROWARD,FORT LAUDERDALE,33340
FL,BROWARD,FORT LAUDERDALE,33345
FL,BROWARD,FORT LAUDERDALE,33346
FL,BROWARD,FORT LAUDERDALE,33348
FL,BROWARD,FORT LAUDERDALE,33349
FL,BROWARD,FORT LAUDERDALE,33351
FL,BROWARD,FORT LAUDERDALE,33355
FL,BROWARD,FORT LAUDERDALE,33359
FL,BROWARD,FORT LAUDERDALE,33394
FL,BROWARD,HALLANDALE,33008
FL,BROWARD,HALLANDALE,33009
FL,BROWARD,HOLLYWOOD,33019
FL,BROWARD,HOLLYWOOD,33020
FL,BROWARD,HOLLYWOOD,33021
FL,BROWARD,HOLLYWOOD,33022
FL,BROWARD,HOLLYWOOD,33023
FL,BROWARD,HOLLYWOOD,33024
FL,BROWARD,HOLLYWOOD,33025
FL,BROWARD,HOLLYWOOD,33026
FL,BROWARD,HOLLYWOOD,33027
FL,BROWARD,HOLLYWOOD,33029
FL,BROWARD,HOLLYWOOD,33081
FL,BROWARD,HOLLYWOOD,33083
FL,BROWARD,HOLLYWOOD,33084
FL,BROWARD,MARGATE,33093
FL,BROWARD,PEMBROKE PINES,33028
FL,BROWARD,PEMBROKE PINES,33082
FL,BROWARD,PLANTATION,33388
FL,BROWARD,POMPANO BEACH,33060
FL,BROWARD,POMPANO BEACH,33061
FL,BROWARD,POMPANO BEACH,33062
FL,BROWARD,POMPANO BEACH,33063
FL,BROWARD,POMPANO BEACH,33064
FL,BROWARD,POMPANO BEACH,33066
FL,BROWARD,POMPANO BEACH,33067
FL,BROWARD,POMPANO BEACH,33068
FL,BROWARD,POMPANO BEACH,33069
FL,BROWARD,POMPANO BEACH,33072
FL,BROWARD,POMPANO BEACH,33073
FL,BROWARD,POMPANO BEACH,33074
FL,BROWARD,POMPANO BEACH,33076
FL,BROWARD,POMPANO BEACH,33077
FL,CHARLOTTE,EL JOBEAN,33927
FL,CHARLOTTE,ENGLEWOOD,34224
FL,CHARLOTTE,MURDOCK,33938
FL,CHARLOTTE,PLACIDA,33946
FL,CHARLOTTE,PORT CHARLOTTE,33948
FL,CHARLOTTE,PORT CHARLOTTE,33949
FL,CHARLOTTE,PORT CHARLOTTE,33952
FL,CHARLOTTE,PORT CHARLOTTE,33953
FL,CHARLOTTE,PORT CHARLOTTE,33954
FL,CHARLOTTE,PORT CHARLOTTE,33981
FL,CHARLOTTE,PUNTA GORDA,33950
FL,CHARLOTTE,PUNTA GORDA,33951
FL,CHARLOTTE,PUNTA GORDA,33955
FL,CHARLOTTE,PUNTA GORDA,33980
FL,CHARLOTTE,PUNTA GORDA,33982
FL,CHARLOTTE,PUNTA GORDA,33983
FL,CHARLOTTE,ROTONDA WEST,33947
FL,COLLIER,CHOKOLOSKEE,34138
FL,COLLIER,COPELAND,34137
FL,COLLIER,EVERGLADES CITY,34139
FL,COLLIER,GOODLAND,34140
FL,COLLIER,IMMOKALEE,34142
FL,COLLIER,IMMOKALEE,34143
FL,COLLIER,MARCO ISLAND,34145
FL,COLLIER,MARCO ISLAND,34146
FL,COLLIER,NAPLES,34101
FL,COLLIER,NAPLES,34102
FL,COLLIER,NAPLES,34103
FL,COLLIER,NAPLES,34104
FL,COLLIER,NAPLES,34105
FL,COLLIER,NAPLES,34106
FL,COLLIER,NAPLES,34107
FL,COLLIER,NAPLES,34108
FL,COLLIER,NAPLES,34109
FL,COLLIER,NAPLES,34110
FL,COLLIER,NAPLES,34112
FL,COLLIER,NAPLES,34113
FL,COLLIER,NAPLES,34114
FL,COLLIER,NAPLES,34116
FL,COLLIER,NAPLES,34117
FL,COLLIER,NAPLES,34119
FL,COLLIER,NAPLES,34120
FL,COLLIER,OCHOPEE,34141
FL,DESOTO,ARCADIA,34265
FL,DESOTO,ARCADIA,34266
FL,DESOTO,ARCADIA,34269
FL,DESOTO,FORT OGDEN,34267
FL,DESOTO,NOCATEE,34268
FL,GLADES,MOORE HAVEN,33471
FL,GLADES,PALMDALE,33944
FL,HENDRY,CLEWISTON,33440
FL,HENDRY,FELDA,33930
FL,HENDRY,LABELLE,33935
FL,HENDRY,LABELLE,33975
FL,LEE,ALVA,33920
FL,LEE,BOCA GRANDE,33921
FL,LEE,BOKEELIA,33922
FL,LEE,BONITA SPRINGS,34133
FL,LEE,BONITA SPRINGS,34134
FL,LEE,BONITA SPRINGS,34135
FL,LEE,BONITA SPRINGS,34136
FL,LEE,CAPE CORAL,33904
FL,LEE,CAPE CORAL,33909
FL,LEE,CAPE CORAL,33910
FL,LEE,CAPE CORAL,33914
FL,LEE,CAPE CORAL,33915
FL,LEE,CAPE CORAL,33990
FL,LEE,CAPE CORAL,33991
FL,LEE,CAPE CORAL,33993
FL,LEE,CAPTIVA,33924
FL,LEE,ESTERO,33928
FL,LEE,ESTERO,33929
FL,LEE,FORT MYERS,33901
FL,LEE,FORT MYERS,33902
FL,LEE,FORT MYERS,33905
FL,LEE,FORT MYERS,33906
FL,LEE,FORT MYERS,33907
FL,LEE,FORT MYERS,33908
FL,LEE,FORT MYERS,33911
FL,LEE,FORT MYERS,33912
FL,LEE,FORT MYERS,33913
FL,LEE,FORT MYERS,33916
FL,LEE,FORT MYERS,33919
FL,LEE,FORT MYERS,33965
FL,LEE,FORT MYERS,33966
FL,LEE,FORT MYERS,33967
FL,LEE,FORT MYERS,33994
FL,LEE,FORT MYERS BEACH,33931
FL,LEE,FORT MYERS BEACH,33932
FL,LEE,LEHIGH ACRES,33936
FL,LEE,LEHIGH ACRES,33970
FL,LEE,LEHIGH ACRES,33971
FL,LEE,LEHIGH ACRES,33972
FL,LEE,LEHIGH ACRES,33973
FL,LEE,LEHIGH ACRES,33974
FL,LEE,LEHIGH ACRES,33976
FL,LEE,NORTH FORT MYERS,33903
FL,LEE,NORTH FORT MYERS,33917
FL,LEE,NORTH FORT MYERS,33918
FL,LEE,PINELAND,33945
FL,LEE,SAINT JAMES CITY,33956
FL,LEE,SANIBEL,33957
FL,MIAMI-DADE,CORAL GABLES,33114
FL,MIAMI-DADE,HIALEAH,33002
FL,MIAMI-DADE,HIALEAH,33010
FL,MIAMI-DADE,HIALEAH,33011
FL,MIAMI-DADE,HIALEAH,33012
FL,MIAMI-DADE,HIALEAH,33013
FL,MIAMI-DADE,HIALEAH,33014
FL,MIAMI-DADE,HIALEAH,33015
FL,MIAMI-DADE,HIALEAH,33016
FL,MIAMI-DADE,HIALEAH,33017
FL,MIAMI-DADE,HIALEAH,33018
FL,MIAMI-DADE,HOMESTEAD,33030
FL,MIAMI-DADE,HOMESTEAD,33031
FL,MIAMI-DADE,HOMESTEAD,33032
FL,MIAMI-DADE,HOMESTEAD,33033
FL,MIAMI-DADE,HOMESTEAD,33034
FL,MIAMI-DADE,HOMESTEAD,33035
FL,MIAMI-DADE,HOMESTEAD,33039
FL,MIAMI-DADE,HOMESTEAD,33090
FL,MIAMI-DADE,HOMESTEAD,33092
FL,MIAMI-DADE,KEY BISCAYNE,33149
FL,MIAMI-DADE,MIAMI,33101
FL,MIAMI-DADE,MIAMI,33102
FL,MIAMI-DADE,MIAMI,33106
FL,MIAMI-DADE,MIAMI,33111
FL,MIAMI-DADE,MIAMI,33112
FL,MIAMI-DADE,MIAMI,33116
FL,MIAMI-DADE,MIAMI,33122
FL,MIAMI-DADE,MIAMI,33124
FL,MIAMI-DADE,MIAMI,33125
FL,MIAMI-DADE,MIAMI,33126
FL,MIAMI-DADE,MIAMI,33127
FL,MIAMI-DADE,MIAMI,33128
FL,MIAMI-DADE,MIAMI,33129
FL,MIAMI-DADE,MIAMI,33130
FL,MIAMI-DADE,MIAMI,33131
FL,MIAMI-DADE,MIAMI,33132
FL,MIAMI-DADE,MIAMI,33133
FL,MIAMI-DADE,MIAMI,33134
FL,MIAMI-DADE,MIAMI,33135
FL,MIAMI-DADE,MIAMI,33136
FL,MIAMI-DADE,MIAMI,33137
FL,MIAMI-DADE,MIAMI,33138
FL,MIAMI-DADE,MIAMI,33142
FL,MIAMI-DADE,MIAMI,33143
FL,MIAMI-DADE,MIAMI,33144
FL,MIAMI-DADE,MIAMI,33145
FL,MIAMI-DADE,MIAMI,33146
FL,MIAMI-DADE,MIAMI,33147
FL,MIAMI-DADE,MIAMI,33150
FL,MIAMI-DADE,MIAMI,33151
FL,MIAMI-DADE,MIAMI,33152
FL,MIAMI-DADE,MIAMI,33153
FL,MIAMI-DADE,MIAMI,33155
FL,MIAMI-DADE,MIAMI,33156
FL,MIAMI-DADE,MIAMI,33157
FL,MIAMI-DADE,MIAMI,33158
FL,MIAMI-DADE,MIAMI,33161
FL,MIAMI-DADE,MIAMI,33162
FL,MIAMI-DADE,MIAMI,33163
FL,MIAMI-DADE,MIAMI,33164
FL,MIAMI-DADE,MIAMI,33165
FL,MIAMI-DADE,MIAMI,33166
FL,MIAMI-DADE,MIAMI,33167
FL,MIAMI-DADE,MIAMI,33168
FL,MIAMI-DADE,MIAMI,33169
FL,MIAMI-DADE,MIAMI,33170
FL,MIAMI-DADE,MIAMI,33172
FL,MIAMI-DADE,MIAMI,33173
FL,MIAMI-DADE,MIAMI,33174
FL,MIAMI-DADE,MIAMI,33175
FL,MIAMI-DADE,MIAMI,33176
FL,MIAMI-DADE,MIAMI,33177
FL,MIAMI-DADE,MIAMI,33178
FL,MIAMI-DADE,MIAMI,33179
FL,MIAMI-DADE,MIAMI,33180
FL,MIAMI-DADE,MIAMI,33181
FL,MIAMI-DADE,MIAMI,33182
FL,MIAMI-DADE,MIAMI,33183
FL,MIAMI-DADE,MIAMI,33184
FL,MIAMI-DADE,MIAMI,33185
FL,MIAMI-DADE,MIAMI,33186
FL,MIAMI-DADE,MIAMI,33187
FL,MIAMI-DADE,MIAMI,33188
FL,MIAMI-DADE,MIAMI,33189
FL,MIAMI-DADE,MIAMI,33190
FL,MIAMI-DADE,MIAMI,33191
FL,MIAMI-DADE,MIAMI,33192
FL,MIAMI-DADE,MIAMI,33193
FL,MIAMI-DADE,MIAMI,33194
FL,MIAMI-DADE,MIAMI,33195
FL,MIAMI-DADE,MIAMI,33196
FL,MIAMI-DADE,MIAMI,33197
FL,MIAMI-DADE,MIAMI,33198
FL,MIAMI-DADE,MIAMI,33199
FL,MIAMI-DADE,MIAMI,33206
FL,MIAMI-DADE,MIAMI,33222
FL,MIAMI-DADE,MIAMI,33231
FL,MIAMI-DADE,MIAMI,33233
FL,MIAMI-DADE,MIAMI,33234
FL,MIAMI-DADE,MIAMI,33238
FL,MIAMI-DADE,MIAMI,33242
FL,MIAMI-DADE,MIAMI,33243
FL,MIAMI-DADE,MIAMI,33245
FL,MIAMI-DADE,MIAMI,33247
FL,MIAMI-DADE,MIAMI,33255
FL,MIAMI-DADE,MIAMI,33256
FL,MIAMI-DADE,MIAMI,33257
FL,MIAMI-DADE,MIAMI,33261
FL,MIAMI-DADE,MIAMI,33265
FL,MIAMI-DADE,MIAMI,33266
FL,MIAMI-DADE,MIAMI,33269
FL,MIAMI-DADE,MIAMI,33280
FL,MIAMI-DADE,MIAMI,33283
FL,MIAMI-DADE,MIAMI,33296
FL,MIAMI-DADE,MIAMI,33299
FL,MIAMI-DADE,MIAMI BEACH,33109
FL,MIAMI-DADE,MIAMI BEACH,33119
FL,MIAMI-DADE,MIAMI BEACH,33139
FL,MIAMI-DADE,MIAMI BEACH,33140
FL,MIAMI-DADE,MIAMI BEACH,33141
FL,MIAMI-DADE,MIAMI BEACH,33154
FL,MIAMI-DADE,MIAMI BEACH,33239
FL,MIAMI-DADE,MIAMI GARDENS,33056
FL,MIAMI-DADE,NORTH MIAMI BEACH,33160
FL,MIAMI-DADE,OPA LOCKA,33054
FL,MIAMI-DADE,OPA LOCKA,33055
FL,MONROE,BIG PINE KEY,33043
FL,MONROE,ISLAMORADA,33036
FL,MONROE,KEY COLONY BEACH,33051
FL,MONROE,KEY LARGO,33037
FL,MONROE,KEY WEST,33040
FL,MONROE,KEY WEST,33041
FL,MONROE,KEY WEST,33045
FL,MONROE,LONG KEY,33001
FL,MONROE,MARATHON,33050
FL,MONROE,MARATHON SHORES,33052
FL,MONROE,SUMMERLAND KEY,33042
FL,MONROE,TAVERNIER,33070
FL,PALM BEACH,BELLE GLADE,33430
FL,PALM BEACH,BOCA RATON,33427
FL,PALM BEACH,BOCA RATON,33428
FL,PALM BEACH,BOCA RATON,33429
FL,PALM BEACH,BOCA RATON,33431
FL,PALM BEACH,BOCA RATON,33432
FL,PALM BEACH,BOCA RATON,33433
FL,PALM BEACH,BOCA RATON,33434
FL,PALM BEACH,BOCA RATON,33464
FL,PALM BEACH,BOCA RATON,33481
FL,PALM BEACH,BOCA RATON,33486
FL,PALM BEACH,BOCA RATON,33487
FL,PALM BEACH,BOCA RATON,33488
FL,PALM BEACH,BOCA RATON,33496
FL,PALM BEACH,BOCA RATON,33497
FL,PALM BEACH,BOCA RATON,33498
FL,PALM BEACH,BOCA RATON,33499
FL,PALM BEACH,BOYNTON BEACH,33424
FL,PALM BEACH,BOYNTON BEACH,33425
FL,PALM BEACH,BOYNTON BEACH,33426
FL,PALM BEACH,BOYNTON BEACH,33435
FL,PALM BEACH,BOYNTON BEACH,33436
FL,PALM BEACH,BOYNTON BEACH,33437
FL,PALM BEACH,BOYNTON BEACH,33472
FL,PALM BEACH,BOYNTON BEACH,33473
FL,PALM BEACH,BOYNTON BEACH,33474
FL,PALM BEACH,CANAL POINT,33438
FL,PALM BEACH,DELRAY BEACH,33444
FL,PALM BEACH,DELRAY BEACH,33445
FL,PALM BEACH,DELRAY BEACH,33446
FL,PALM BEACH,DELRAY BEACH,33448
FL,PALM BEACH,DELRAY BEACH,33482
FL,PALM BEACH,DELRAY BEACH,33483
FL,PALM BEACH,DELRAY BEACH,33484
FL,PALM BEACH,GREENACRES,33454
FL,PALM BEACH,JUPITER,33458
FL,PALM BEACH,JUPITER,33468
FL,PALM BEACH,JUPITER,33469
FL,PALM BEACH,JUPITER,33477
FL,PALM BEACH,JUPITER,33478
FL,PALM BEACH,LAKE HARBOR,33459
FL,PALM BEACH,LAKE WORTH,33449
FL,PALM BEACH,LAKE WORTH,33460
FL,PALM BEACH,LAKE WORTH,33461
FL,PALM BEACH,LAKE WORTH,33462
FL,PALM BEACH,LAKE WORTH,33463
FL,PALM BEACH,LAKE WORTH,33465
FL,PALM BEACH,LAKE WORTH,33466
FL,PALM BEACH,LAKE WORTH,33467
FL,PALM BEACH,LOXAHATCHEE,33470
FL,PALM BEACH,NORTH PALM BEACH,33408
FL,PALM BEACH,PAHOKEE,33476
FL,PALM BEACH,PALM BEACH,33480
FL,PALM BEACH,PALM BEACH GARDENS,33410
FL,PALM BEACH,PALM BEACH GARDENS,33418
FL,PALM BEACH,ROYAL PALM BEACH,33411
FL,PALM BEACH,ROYAL PALM BEACH,33421
FL,PALM BEACH,SOUTH BAY,33493
FL,PALM BEACH,WELLINGTON,33414
FL,PALM BEACH,WEST PALM BEACH,33401
FL,PALM BEACH,WEST PALM BEACH,33402
FL,PALM BEACH,WEST PALM BEACH,33403
FL,PALM BEACH,WEST PALM BEACH,33404
FL,PALM BEACH,WEST PALM BEACH,33405
FL,PALM BEACH,WEST PALM BEACH,33406
FL,PALM BEACH,WEST PALM BEACH,33407
FL,PALM BEACH,WEST PALM BEACH,33409
FL,PALM BEACH,WEST PALM BEACH,33412
FL,PALM BEACH,WEST PALM BEACH,33413
FL,PALM BEACH,WEST PALM BEACH,33415
FL,PALM BEACH,WEST PALM BEACH,33416
FL,PALM BEACH,WEST PALM BEACH,33417
FL,PALM BEACH,WEST PALM BEACH,33419
FL,PALM BEACH,WEST PALM BEACH,33420
FL,PALM BEACH,WEST PALM BEACH,33422
FL,SARASOTA,ENGLEWOOD,34223
FL,SARASOTA,ENGLEWOOD,34295
FL,SARASOTA,LAUREL,34272
FL,SARASOTA,NOKOMIS,34274
FL,SARASOTA,NOKOMIS,34275
FL,SARASOTA,NORTH PORT,34286
FL,SARASOTA,NORTH PORT,34287
FL,SARASOTA,NORTH PORT,34288
FL,SARASOTA,NORTH PORT,34289
FL,SARASOTA,NORTH PORT,34290
FL,SARASOTA,NORTH PORT,34291
FL,SARASOTA,OSPREY,34229
FL,SARASOTA,SARASOTA,34230
FL,SARASOTA,SARASOTA,34231
FL,SARASOTA,SARASOTA,34232
FL,SARASOTA,SARASOTA,34233
FL,SARASOTA,SARASOTA,34234
FL,SARASOTA,SARASOTA,34235
FL,SARASOTA,SARASOTA,34236
FL,SARASOTA,SARASOTA,34237
FL,SARASOTA,SARASOTA,34238
FL,SARASOTA,SARASOTA,34239
FL,SARASOTA,SARASOTA,34240
FL,SARASOTA,SARASOTA,34241
FL,SARASOTA,SARASOTA,34242
FL,SARASOTA,SARASOTA,34249
FL,SARASOTA,SARASOTA,34276
FL,SARASOTA,SARASOTA,34277
FL,SARASOTA,SARASOTA,34278
FL,SARASOTA,VENICE,34284
FL,SARASOTA,VENICE,34285
FL,SARASOTA,VENICE,34292
FL,SARASOTA,VENICE,34293
Grand Total,,,
APOLLO BEACH,MA07 North Florida,HILLSBOROUGH,APOLLO BEACH,33572
RUSKIN,MA07 North Florida,HILLSBOROUGH,RUSKIN,33570
RUSKIN,MA07 North Florida,HILLSBOROUGH,RUSKIN,33575
SUN CITY,MA07 North Florida,HILLSBOROUGH,SUN CITY,33586
SUN CITY CENTER,MA07 North Florida,HILLSBOROUGH,SUN CITY CENTER,33571
SUN CITY CENTER,MA07 North Florida,HILLSBOROUGH,SUN CITY CENTER,33573
TAMPA,MA07 North Florida,HILLSBOROUGH,TAMPA,33601
TAMPA,MA07 North Florida,HILLSBOROUGH,TAMPA,33602
TAMPA,MA07 North Florida,HILLSBOROUGH,TAMPA,33605
TAMPA,MA07 North Florida,HILLSBOROUGH,TAMPA,33606
TAMPA,MA07 North Florida,HILLSBOROUGH,TAMPA,33608
TAMPA,MA07 North Florida,HILLSBOROUGH,TAMPA,33609
TAMPA,MA07 North Florida,HILLSBOROUGH,TAMPA,33611
TAMPA,MA07 North Florida,HILLSBOROUGH,TAMPA,33616
TAMPA,MA07 North Florida,HILLSBOROUGH,TAMPA,33619
TAMPA,MA07 North Florida,HILLSBOROUGH,TAMPA,33621
TAMPA,MA07 North Florida,HILLSBOROUGH,TAMPA,33622
TAMPA,MA07 North Florida,HILLSBOROUGH,TAMPA,33623
TAMPA,MA07 North Florida,HILLSBOROUGH,TAMPA,33629
TAMPA,MA07 North Florida,HILLSBOROUGH,TAMPA,33631
TAMPA,MA07 North Florida,HILLSBOROUGH,TAMPA,33633
TAMPA,MA07 North Florida,HILLSBOROUGH,TAMPA,33650
TAMPA,MA07 North Florida,HILLSBOROUGH,TAMPA,33655
TAMPA,MA07 North Florida,HILLSBOROUGH,TAMPA,33660
TAMPA,MA07 North Florida,HILLSBOROUGH,TAMPA,33661
TAMPA,MA07 North Florida,HILLSBOROUGH,TAMPA,33662
TAMPA,MA07 North Florida,HILLSBOROUGH,TAMPA,33663
TAMPA,MA07 North Florida,HILLSBOROUGH,TAMPA,33664
TAMPA,MA07 North Florida,HILLSBOROUGH,TAMPA,33672
TAMPA,MA07 North Florida,HILLSBOROUGH,TAMPA,33673
TAMPA,MA07 North Florida,HILLSBOROUGH,TAMPA,33674
TAMPA,MA07 North Florida,HILLSBOROUGH,TAMPA,33675
TAMPA,MA07 North Florida,HILLSBOROUGH,TAMPA,33677
TAMPA,MA07 North Florida,HILLSBOROUGH,TAMPA,33679
TAMPA,MA07 North Florida,HILLSBOROUGH,TAMPA,33680
TAMPA,MA07 North Florida,HILLSBOROUGH,TAMPA,33681
TAMPA,MA07 North Florida,HILLSBOROUGH,TAMPA,33682
TAMPA,MA07 North Florida,HILLSBOROUGH,TAMPA,33684
TAMPA,MA07 North Florida,HILLSBOROUGH,TAMPA,33685
TAMPA,MA07 North Florida,HILLSBOROUGH,TAMPA,33686
TAMPA,MA07 North Florida,HILLSBOROUGH,TAMPA,33687
TAMPA,MA07 North Florida,HILLSBOROUGH,TAMPA,33688
TAMPA,MA07 North Florida,HILLSBOROUGH,TAMPA,33689
TAMPA,MA07 North Florida,HILLSBOROUGH,TAMPA,33694
BRADENTON,MA07 North Florida,MANATEE,BRADENTON,34201
BRADENTON,MA07 North Florida,MANATEE,BRADENTON,34202
BRADENTON,MA07 North Florida,MANATEE,BRADENTON,34203
BRADENTON,MA07 North Florida,MANATEE,BRADENTON,34204
BRADENTON,MA07 North Florida,MANATEE,BRADENTON,34205
BRADENTON,MA07 North Florida,MANATEE,BRADENTON,34206
BRADENTON,MA07 North Florida,MANATEE,BRADENTON,34207
BRADENTON,MA07 North Florida,MANATEE,BRADENTON,34208
BRADENTON,MA07 North Florida,MANATEE,BRADENTON,34209
BRADENTON,MA07 North Florida,MANATEE,BRADENTON,34210
BRADENTON,MA07 North Florida,MANATEE,BRADENTON,34211
BRADENTON,MA07 North Florida,MANATEE,BRADENTON,34212
BRADENTON,MA07 North Florida,MANATEE,BRADENTON,34280
BRADENTON,MA07 North Florida,MANATEE,BRADENTON,34281
BRADENTON,MA07 North Florida,MANATEE,BRADENTON,34282
BRADENTON BEACH,MA07 North Florida,MANATEE,BRADENTON BEACH,34217
HOLMES BEACH,MA07 North Florida,MANATEE,HOLMES BEACH,34218
SARASOTA,MA07 North Florida,MANATEE,SARASOTA,34243
SARASOTA,MA07 North Florida,MANATEE,SARASOTA,34260
INDIANTOWN,MA07 North Florida,MARTIN,INDIANTOWN,34956
JENSEN BEACH,MA07 North Florida,MARTIN,JENSEN BEACH,34957
JENSEN BEACH,MA07 North Florida,MARTIN,JENSEN BEACH,34958
FORT PIERCE,MA07 North Florida,SAINT LUCIE,FORT PIERCE,34950
FORT PIERCE,MA07 North Florida,SAINT LUCIE,FORT PIERCE,34951
FORT PIERCE,MA07 North Florida,SAINT LUCIE,FORT PIERCE,34954
FORT PIERCE,MA07 North Florida,SAINT LUCIE,FORT PIERCE,34982
PORT SAINT LUCIE,MA07 North Florida,SAINT LUCIE,PORT SAINT LUCIE,34952
PORT SAINT LUCIE,MA07 North Florida,SAINT LUCIE,PORT SAINT LUCIE,34953
PORT SAINT LUCIE,MA07 North Florida,SAINT LUCIE,PORT SAINT LUCIE,34983
PORT SAINT LUCIE,MA07 North Florida,SAINT LUCIE,PORT SAINT LUCIE,34984
PORT SAINT LUCIE,MA07 North Florida,SAINT LUCIE,PORT SAINT LUCIE,34985
PORT SAINT LUCIE,MA07 North Florida,SAINT LUCIE,PORT SAINT LUCIE,34986
PORT SAINT LUCIE,MA07 North Florida,SAINT LUCIE,PORT SAINT LUCIE,34987
PORT SAINT LUCIE,MA07 North Florida,SAINT LUCIE,PORT SAINT LUCIE,34988
COCONUT CREEK,MA08 South Florida,BROWARD,COCONUT CREEK,33097
CORAL SPRINGS,MA08 South Florida,BROWARD,CORAL SPRINGS,33065
CORAL SPRINGS,MA08 South Florida,BROWARD,CORAL SPRINGS,33071
CORAL SPRINGS,MA08 South Florida,BROWARD,CORAL SPRINGS,33075
DANIA,MA08 South Florida,BROWARD,DANIA,33004
DEERFIELD BEACH,MA08 South Florida,BROWARD,DEERFIELD BEACH,33441
DEERFIELD BEACH,MA08 South Florida,BROWARD,DEERFIELD BEACH,33442
DEERFIELD BEACH,MA08 South Florida,BROWARD,DEERFIELD BEACH,33443
FORT LAUDERDALE,MA08 South Florida,BROWARD,FORT LAUDERDALE,33301
FORT LAUDERDALE,MA08 South Florida,BROWARD,FORT LAUDERDALE,33302
FORT LAUDERDALE,MA08 South Florida,BROWARD,FORT LAUDERDALE,33303
FORT LAUDERDALE,MA08 South Florida,BROWARD,FORT LAUDERDALE,33304
FORT LAUDERDALE,MA08 South Florida,BROWARD,FORT LAUDERDALE,33305
FORT LAUDERDALE,MA08 South Florida,BROWARD,FORT LAUDERDALE,33306
FORT LAUDERDALE,MA08 South Florida,BROWARD,FORT LAUDERDALE,33307
FORT LAUDERDALE,MA08 South Florida,BROWARD,FORT LAUDERDALE,33308
FORT LAUDERDALE,MA08 South Florida,BROWARD,FORT LAUDERDALE,33309
FORT LAUDERDALE,MA08 South Florida,BROWARD,FORT LAUDERDALE,33310
FORT LAUDERDALE,MA08 South Florida,BROWARD,FORT LAUDERDALE,33311
FORT LAUDERDALE,MA08 South Florida,BROWARD,FORT LAUDERDALE,33312
FORT LAUDERDALE,MA08 South Florida,BROWARD,FORT LAUDERDALE,33313
FORT LAUDERDALE,MA08 South Florida,BROWARD,FORT LAUDERDALE,33314
FORT LAUDERDALE,MA08 South Florida,BROWARD,FORT LAUDERDALE,33315
FORT LAUDERDALE,MA08 South Florida,BROWARD,FORT LAUDERDALE,33316
FORT LAUDERDALE,MA08 South Florida,BROWARD,FORT LAUDERDALE,33317
FORT LAUDERDALE,MA08 South Florida,BROWARD,FORT LAUDERDALE,33318
FORT LAUDERDALE,MA08 South Florida,BROWARD,FORT LAUDERDALE,33319
FORT LAUDERDALE,MA08 South Florida,BROWARD,FORT LAUDERDALE,33320
FORT LAUDERDALE,MA08 South Florida,BROWARD,FORT LAUDERDALE,33321
FORT LAUDERDALE,MA08 South Florida,BROWARD,FORT LAUDERDALE,33322
FORT LAUDERDALE,MA08 South Florida,BROWARD,FORT LAUDERDALE,33323
FORT LAUDERDALE,MA08 South Florida,BROWARD,FORT LAUDERDALE,33324
FORT LAUDERDALE,MA08 South Florida,BROWARD,FORT LAUDERDALE,33325
FORT LAUDERDALE,MA08 South Florida,BROWARD,FORT LAUDERDALE,33326
FORT LAUDERDALE,MA08 South Florida,BROWARD,FORT LAUDERDALE,33327
FORT LAUDERDALE,MA08 South Florida,BROWARD,FORT LAUDERDALE,33328
FORT LAUDERDALE,MA08 South Florida,BROWARD,FORT LAUDERDALE,33329
FORT LAUDERDALE,MA08 South Florida,BROWARD,FORT LAUDERDALE,33330
FORT LAUDERDALE,MA08 South Florida,BROWARD,FORT LAUDERDALE,33331
FORT LAUDERDALE,MA08 South Florida,BROWARD,FORT LAUDERDALE,33332
FORT LAUDERDALE,MA08 South Florida,BROWARD,FORT LAUDERDALE,33334
FORT LAUDERDALE,MA08 South Florida,BROWARD,FORT LAUDERDALE,33335
FORT LAUDERDALE,MA08 South Florida,BROWARD,FORT LAUDERDALE,33336
FORT LAUDERDALE,MA08 South Florida,BROWARD,FORT LAUDERDALE,33337
FORT LAUDERDALE,MA08 South Florida,BROWARD,FORT LAUDERDALE,33338
FORT LAUDERDALE,MA08 South Florida,BROWARD,FORT LAUDERDALE,33339
FORT LAUDERDALE,MA08 South Florida,BROWARD,FORT LAUDERDALE,33340
FORT LAUDERDALE,MA08 South Florida,BROWARD,FORT LAUDERDALE,33345
FORT LAUDERDALE,MA08 South Florida,BROWARD,FORT LAUDERDALE,33346
FORT LAUDERDALE,MA08 South Florida,BROWARD,FORT LAUDERDALE,33348
FORT LAUDERDALE,MA08 South Florida,BROWARD,FORT LAUDERDALE,33349
FORT LAUDERDALE,MA08 South Florida,BROWARD,FORT LAUDERDALE,33351
FORT LAUDERDALE,MA08 South Florida,BROWARD,FORT LAUDERDALE,33355
FORT LAUDERDALE,MA08 South Florida,BROWARD,FORT LAUDERDALE,33359
FORT LAUDERDALE,MA08 South Florida,BROWARD,FORT LAUDERDALE,33394
HALLANDALE,MA08 South Florida,BROWARD,HALLANDALE,33008
HALLANDALE,MA08 South Florida,BROWARD,HALLANDALE,33009
HOLLYWOOD,MA08 South Florida,BROWARD,HOLLYWOOD,33019
HOLLYWOOD,MA08 South Florida,BROWARD,HOLLYWOOD,33020
HOLLYWOOD,MA08 South Florida,BROWARD,HOLLYWOOD,33021
HOLLYWOOD,MA08 South Florida,BROWARD,HOLLYWOOD,33022
HOLLYWOOD,MA08 South Florida,BROWARD,HOLLYWOOD,33023
HOLLYWOOD,MA08 South Florida,BROWARD,HOLLYWOOD,33024
HOLLYWOOD,MA08 South Florida,BROWARD,HOLLYWOOD,33025
HOLLYWOOD,MA08 South Florida,BROWARD,HOLLYWOOD,33026
HOLLYWOOD,MA08 South Florida,BROWARD,HOLLYWOOD,33027
HOLLYWOOD,MA08 South Florida,BROWARD,HOLLYWOOD,33029
HOLLYWOOD,MA08 South Florida,BROWARD,HOLLYWOOD,33081
HOLLYWOOD,MA08 South Florida,BROWARD,HOLLYWOOD,33083
HOLLYWOOD,MA08 South Florida,BROWARD,HOLLYWOOD,33084
MARGATE,MA08 South Florida,BROWARD,MARGATE,33093
PEMBROKE PINES,MA08 South Florida,BROWARD,PEMBROKE PINES,33028
PEMBROKE PINES,MA08 South Florida,BROWARD,PEMBROKE PINES,33082
PLANTATION,MA08 South Florida,BROWARD,PLANTATION,33388
POMPANO BEACH,MA08 South Florida,BROWARD,POMPANO BEACH,33060
POMPANO BEACH,MA08 South Florida,BROWARD,POMPANO BEACH,33061
POMPANO BEACH,MA08 South Florida,BROWARD,POMPANO BEACH,33062
POMPANO BEACH,MA08 South Florida,BROWARD,POMPANO BEACH,33063
POMPANO BEACH,MA08 South Florida,BROWARD,POMPANO BEACH,33064
POMPANO BEACH,MA08 South Florida,BROWARD,POMPANO BEACH,33066
POMPANO BEACH,MA08 South Florida,BROWARD,POMPANO BEACH,33067
POMPANO BEACH,MA08 South Florida,BROWARD,POMPANO BEACH,33068
POMPANO BEACH,MA08 South Florida,BROWARD,POMPANO BEACH,33069
POMPANO BEACH,MA08 South Florida,BROWARD,POMPANO BEACH,33072
POMPANO BEACH,MA08 South Florida,BROWARD,POMPANO BEACH,33073
POMPANO BEACH,MA08 South Florida,BROWARD,POMPANO BEACH,33074
POMPANO BEACH,MA08 South Florida,BROWARD,POMPANO BEACH,33076
POMPANO BEACH,MA08 South Florida,BROWARD,POMPANO BEACH,33077
EL JOBEAN,MA08 South Florida,CHARLOTTE,EL JOBEAN,33927
ENGLEWOOD,MA08 South Florida,CHARLOTTE,ENGLEWOOD,34224
MURDOCK,MA08 South Florida,CHARLOTTE,MURDOCK,33938
PLACIDA,MA08 South Florida,CHARLOTTE,PLACIDA,33946
PORT CHARLOTTE,MA08 South Florida,CHARLOTTE,PORT CHARLOTTE,33948
PORT CHARLOTTE,MA08 South Florida,CHARLOTTE,PORT CHARLOTTE,33949
PORT CHARLOTTE,MA08 South Florida,CHARLOTTE,PORT CHARLOTTE,33952
PORT CHARLOTTE,MA08 South Florida,CHARLOTTE,PORT CHARLOTTE,33953
PORT CHARLOTTE,MA08 South Florida,CHARLOTTE,PORT CHARLOTTE,33954
PORT CHARLOTTE,MA08 South Florida,CHARLOTTE,PORT CHARLOTTE,33981
PUNTA GORDA,MA08 South Florida,CHARLOTTE,PUNTA GORDA,33950
PUNTA GORDA,MA08 South Florida,CHARLOTTE,PUNTA GORDA,33951
PUNTA GORDA,MA08 South Florida,CHARLOTTE,PUNTA GORDA,33955
PUNTA GORDA,MA08 South Florida,CHARLOTTE,PUNTA GORDA,33980
PUNTA GORDA,MA08 South Florida,CHARLOTTE,PUNTA GORDA,33982
PUNTA GORDA,MA08 South Florida,CHARLOTTE,PUNTA GORDA,33983
ROTONDA WEST,MA08 South Florida,CHARLOTTE,ROTONDA WEST,33947
CHOKOLOSKEE,MA08 South Florida,COLLIER,CHOKOLOSKEE,34138
COPELAND,MA08 South Florida,COLLIER,COPELAND,34137
EVERGLADES CITY,MA08 South Florida,COLLIER,EVERGLADES CITY,34139
GOODLAND,MA08 South Florida,COLLIER,GOODLAND,34140
IMMOKALEE,MA08 South Florida,COLLIER,IMMOKALEE,34142
IMMOKALEE,MA08 South Florida,COLLIER,IMMOKALEE,34143
MARCO ISLAND,MA08 South Florida,COLLIER,MARCO ISLAND,34145
MARCO ISLAND,MA08 South Florida,COLLIER,MARCO ISLAND,34146
NAPLES,MA08 South Florida,COLLIER,NAPLES,34101
NAPLES,MA08 South Florida,COLLIER,NAPLES,34102
NAPLES,MA08 South Florida,COLLIER,NAPLES,34103
NAPLES,MA08 South Florida,COLLIER,NAPLES,34104
NAPLES,MA08 South Florida,COLLIER,NAPLES,34105
NAPLES,MA08 South Florida,COLLIER,NAPLES,34106
NAPLES,MA08 South Florida,COLLIER,NAPLES,34107
NAPLES,MA08 South Florida,COLLIER,NAPLES,34108
NAPLES,MA08 South Florida,COLLIER,NAPLES,34109
NAPLES,MA08 South Florida,COLLIER,NAPLES,34110
NAPLES,MA08 South Florida,COLLIER,NAPLES,34112
NAPLES,MA08 South Florida,COLLIER,NAPLES,34113
NAPLES,MA08 South Florida,COLLIER,NAPLES,34114
NAPLES,MA08 South Florida,COLLIER,NAPLES,34116
NAPLES,MA08 South Florida,COLLIER,NAPLES,34117
NAPLES,MA08 South Florida,COLLIER,NAPLES,34119
NAPLES,MA08 South Florida,COLLIER,NAPLES,34120
OCHOPEE,MA08 South Florida,COLLIER,OCHOPEE,34141
ARCADIA,MA08 South Florida,DESOTO,ARCADIA,34265
ARCADIA,MA08 South Florida,DESOTO,ARCADIA,34266
ARCADIA,MA08 South Florida,DESOTO,ARCADIA,34269
FORT OGDEN,MA08 South Florida,DESOTO,FORT OGDEN,34267
NOCATEE,MA08 South Florida,DESOTO,NOCATEE,34268
MOORE HAVEN,MA08 South Florida,GLADES,MOORE HAVEN,33471
PALMDALE,MA08 South Florida,GLADES,PALMDALE,33944
CLEWISTON,MA08 South Florida,HENDRY,CLEWISTON,33440
FELDA,MA08 South Florida,HENDRY,FELDA,33930
LABELLE,MA08 South Florida,HENDRY,LABELLE,33935
LABELLE,MA08 South Florida,HENDRY,LABELLE,33975
ALVA,MA08 South Florida,LEE,ALVA,33920
BOCA GRANDE,MA08 South Florida,LEE,BOCA GRANDE,33921
BOKEELIA,MA08 South Florida,LEE,BOKEELIA,33922
BONITA SPRINGS,MA08 South Florida,LEE,BONITA SPRINGS,34133
BONITA SPRINGS,MA08 South Florida,LEE,BONITA SPRINGS,34134
BONITA SPRINGS,MA08 South Florida,LEE,BONITA SPRINGS,34135
BONITA SPRINGS,MA08 South Florida,LEE,BONITA SPRINGS,34136
CAPE CORAL,MA08 South Florida,LEE,CAPE CORAL,33904
CAPE CORAL,MA08 South Florida,LEE,CAPE CORAL,33909
CAPE CORAL,MA08 South Florida,LEE,CAPE CORAL,33910
CAPE CORAL,MA08 South Florida,LEE,CAPE CORAL,33914
CAPE CORAL,MA08 South Florida,LEE,CAPE CORAL,33915
CAPE CORAL,MA08 South Florida,LEE,CAPE CORAL,33990
CAPE CORAL,MA08 South Florida,LEE,CAPE CORAL,33991
CAPE CORAL,MA08 South Florida,LEE,CAPE CORAL,33993
CAPTIVA,MA08 South Florida,LEE,CAPTIVA,33924
ESTERO,MA08 South Florida,LEE,ESTERO,33928
ESTERO,MA08 South Florida,LEE,ESTERO,33929
FORT MYERS,MA08 South Florida,LEE,FORT MYERS,33901
FORT MYERS,MA08 South Florida,LEE,FORT MYERS,33902
FORT MYERS,MA08 South Florida,LEE,FORT MYERS,33905
FORT MYERS,MA08 South Florida,LEE,FORT MYERS,33906
FORT MYERS,MA08 South Florida,LEE,FORT MYERS,33907
FORT MYERS,MA08 South Florida,LEE,FORT MYERS,33908
FORT MYERS,MA08 South Florida,LEE,FORT MYERS,33911
FORT MYERS,MA08 South Florida,LEE,FORT MYERS,33912
FORT MYERS,MA08 South Florida,LEE,FORT MYERS,33913
FORT MYERS,MA08 South Florida,LEE,FORT MYERS,33916
FORT MYERS,MA08 South Florida,LEE,FORT MYERS,33919
FORT MYERS,MA08 South Florida,LEE,FORT MYERS,33965
FORT MYERS,MA08 South Florida,LEE,FORT MYERS,33966
FORT MYERS,MA08 South Florida,LEE,FORT MYERS,33967
FORT MYERS,MA08 South Florida,LEE,FORT MYERS,33994
FORT MYERS BEACH,MA08 South Florida,LEE,FORT MYERS BEACH,33931
FORT MYERS BEACH,MA08 South Florida,LEE,FORT MYERS BEACH,33932
LEHIGH ACRES,MA08 South Florida,LEE,LEHIGH ACRES,33936
LEHIGH ACRES,MA08 South Florida,LEE,LEHIGH ACRES,33970
LEHIGH ACRES,MA08 South Florida,LEE,LEHIGH ACRES,33971
LEHIGH ACRES,MA08 South Florida,LEE,LEHIGH ACRES,33972
LEHIGH ACRES,MA08 South Florida,LEE,LEHIGH ACRES,33973
LEHIGH ACRES,MA08 South Florida,LEE,LEHIGH ACRES,33974
LEHIGH ACRES,MA08 South Florida,LEE,LEHIGH ACRES,33976
NORTH FORT MYERS,MA08 South Florida,LEE,NORTH FORT MYERS,33903
NORTH FORT MYERS,MA08 South Florida,LEE,NORTH FORT MYERS,33917
NORTH FORT MYERS,MA08 South Florida,LEE,NORTH FORT MYERS,33918
PINELAND,MA08 South Florida,LEE,PINELAND,33945
SAINT JAMES CITY,MA08 South Florida,LEE,SAINT JAMES CITY,33956
SANIBEL,MA08 South Florida,LEE,SANIBEL,33957
CORAL GABLES,MA08 South Florida,MIAMI-DADE,CORAL GABLES,33114
HIALEAH,MA08 South Florida,MIAMI-DADE,HIALEAH,33002
HIALEAH,MA08 South Florida,MIAMI-DADE,HIALEAH,33010
HIALEAH,MA08 South Florida,MIAMI-DADE,HIALEAH,33011
HIALEAH,MA08 South Florida,MIAMI-DADE,HIALEAH,33012
HIALEAH,MA08 South Florida,MIAMI-DADE,HIALEAH,33013
HIALEAH,MA08 South Florida,MIAMI-DADE,HIALEAH,33014
HIALEAH,MA08 South Florida,MIAMI-DADE,HIALEAH,33015
HIALEAH,MA08 South Florida,MIAMI-DADE,HIALEAH,33016
HIALEAH,MA08 South Florida,MIAMI-DADE,HIALEAH,33017
HIALEAH,MA08 South Florida,MIAMI-DADE,HIALEAH,33018
HOMESTEAD,MA08 South Florida,MIAMI-DADE,HOMESTEAD,33030
HOMESTEAD,MA08 South Florida,MIAMI-DADE,HOMESTEAD,33031
HOMESTEAD,MA08 South Florida,MIAMI-DADE,HOMESTEAD,33032
HOMESTEAD,MA08 South Florida,MIAMI-DADE,HOMESTEAD,33033
HOMESTEAD,MA08 South Florida,MIAMI-DADE,HOMESTEAD,33034
HOMESTEAD,MA08 South Florida,MIAMI-DADE,HOMESTEAD,33035
HOMESTEAD,MA08 South Florida,MIAMI-DADE,HOMESTEAD,33039
HOMESTEAD,MA08 South Florida,MIAMI-DADE,HOMESTEAD,33090
HOMESTEAD,MA08 South Florida,MIAMI-DADE,HOMESTEAD,33092
KEY BISCAYNE,MA08 South Florida,MIAMI-DADE,KEY BISCAYNE,33149
MIAMI,MA08 South Florida,MIAMI-DADE,MIAMI,33101
MIAMI,MA08 South Florida,MIAMI-DADE,MIAMI,33102
MIAMI,MA08 South Florida,MIAMI-DADE,MIAMI,33106
MIAMI,MA08 South Florida,MIAMI-DADE,MIAMI,33111
MIAMI,MA08 South Florida,MIAMI-DADE,MIAMI,33112
MIAMI,MA08 South Florida,MIAMI-DADE,MIAMI,33116
MIAMI,MA08 South Florida,MIAMI-DADE,MIAMI,33122
MIAMI,MA08 South Florida,MIAMI-DADE,MIAMI,33124
MIAMI,MA08 South Florida,MIAMI-DADE,MIAMI,33125
MIAMI,MA08 South Florida,MIAMI-DADE,MIAMI,33126
MIAMI,MA08 South Florida,MIAMI-DADE,MIAMI,33127
MIAMI,MA08 South Florida,MIAMI-DADE,MIAMI,33128
MIAMI,MA08 South Florida,MIAMI-DADE,MIAMI,33129
MIAMI,MA08 South Florida,MIAMI-DADE,MIAMI,33130
MIAMI,MA08 South Florida,MIAMI-DADE,MIAMI,33131
MIAMI,MA08 South Florida,MIAMI-DADE,MIAMI,33132
MIAMI,MA08 South Florida,MIAMI-DADE,MIAMI,33133
MIAMI,MA08 South Florida,MIAMI-DADE,MIAMI,33134
MIAMI,MA08 South Florida,MIAMI-DADE,MIAMI,33135
MIAMI,MA08 South Florida,MIAMI-DADE,MIAMI,33136
MIAMI,MA08 South Florida,MIAMI-DADE,MIAMI,33137
MIAMI,MA08 South Florida,MIAMI-DADE,MIAMI,33138
MIAMI,MA08 South Florida,MIAMI-DADE,MIAMI,33142
MIAMI,MA08 South Florida,MIAMI-DADE,MIAMI,33143
MIAMI,MA08 South Florida,MIAMI-DADE,MIAMI,33144
MIAMI,MA08 South Florida,MIAMI-DADE,MIAMI,33145
MIAMI,MA08 South Florida,MIAMI-DADE,MIAMI,33146
MIAMI,MA08 South Florida,MIAMI-DADE,MIAMI,33147
MIAMI,MA08 South Florida,MIAMI-DADE,MIAMI,33150
MIAMI,MA08 South Florida,MIAMI-DADE,MIAMI,33151
MIAMI,MA08 South Florida,MIAMI-DADE,MIAMI,33152
MIAMI,MA08 South Florida,MIAMI-DADE,MIAMI,33153
MIAMI,MA08 South Florida,MIAMI-DADE,MIAMI,33155
MIAMI,MA08 South Florida,MIAMI-DADE,MIAMI,33156
MIAMI,MA08 South Florida,MIAMI-DADE,MIAMI,33157
MIAMI,MA08 South Florida,MIAMI-DADE,MIAMI,33158
MIAMI,MA08 South Florida,MIAMI-DADE,MIAMI,33161
MIAMI,MA08 South Florida,MIAMI-DADE,MIAMI,33162
MIAMI,MA08 South Florida,MIAMI-DADE,MIAMI,33163
MIAMI,MA08 South Florida,MIAMI-DADE,MIAMI,33164
MIAMI,MA08 South Florida,MIAMI-DADE,MIAMI,33165
MIAMI,MA08 South Florida,MIAMI-DADE,MIAMI,33166
MIAMI,MA08 South Florida,MIAMI-DADE,MIAMI,33167
MIAMI,MA08 South Florida,MIAMI-DADE,MIAMI,33168
MIAMI,MA08 South Florida,MIAMI-DADE,MIAMI,33169
MIAMI,MA08 South Florida,MIAMI-DADE,MIAMI,33170
MIAMI,MA08 South Florida,MIAMI-DADE,MIAMI,33172
MIAMI,MA08 South Florida,MIAMI-DADE,MIAMI,33173
MIAMI,MA08 South Florida,MIAMI-DADE,MIAMI,33174
MIAMI,MA08 South Florida,MIAMI-DADE,MIAMI,33175
MIAMI,MA08 South Florida,MIAMI-DADE,MIAMI,33176
MIAMI,MA08 South Florida,MIAMI-DADE,MIAMI,33177
MIAMI,MA08 South Florida,MIAMI-DADE,MIAMI,33178
MIAMI,MA08 South Florida,MIAMI-DADE,MIAMI,33179
MIAMI,MA08 South Florida,MIAMI-DADE,MIAMI,33180
MIAMI,MA08 South Florida,MIAMI-DADE,MIAMI,33181
MIAMI,MA08 South Florida,MIAMI-DADE,MIAMI,33182
MIAMI,MA08 South Florida,MIAMI-DADE,MIAMI,33183
MIAMI,MA08 South Florida,MIAMI-DADE,MIAMI,33184
MIAMI,MA08 South Florida,MIAMI-DADE,MIAMI,33185
MIAMI,MA08 South Florida,MIAMI-DADE,MIAMI,33186
MIAMI,MA08 South Florida,MIAMI-DADE,MIAMI,33187
MIAMI,MA08 South Florida,MIAMI-DADE,MIAMI,33188
MIAMI,MA08 South Florida,MIAMI-DADE,MIAMI,33189
MIAMI,MA08 South Florida,MIAMI-DADE,MIAMI,33190
MIAMI,MA08 South Florida,MIAMI-DADE,MIAMI,33191
MIAMI,MA08 South Florida,MIAMI-DADE,MIAMI,33192
MIAMI,MA08 South Florida,MIAMI-DADE,MIAMI,33193
MIAMI,MA08 South Florida,MIAMI-DADE,MIAMI,33194
MIAMI,MA08 South Florida,MIAMI-DADE,MIAMI,33195
MIAMI,MA08 South Florida,MIAMI-DADE,MIAMI,33196
MIAMI,MA08 South Florida,MIAMI-DADE,MIAMI,33197
MIAMI,MA08 South Florida,MIAMI-DADE,MIAMI,33198
MIAMI,MA08 South Florida,MIAMI-DADE,MIAMI,33199
MIAMI,MA08 South Florida,MIAMI-DADE,MIAMI,33206
MIAMI,MA08 South Florida,MIAMI-DADE,MIAMI,33222
MIAMI,MA08 South Florida,MIAMI-DADE,MIAMI,33231
MIAMI,MA08 South Florida,MIAMI-DADE,MIAMI,33233
MIAMI,MA08 South Florida,MIAMI-DADE,MIAMI,33234
MIAMI,MA08 South Florida,MIAMI-DADE,MIAMI,33238
MIAMI,MA08 South Florida,MIAMI-DADE,MIAMI,33242
MIAMI,MA08 South Florida,MIAMI-DADE,MIAMI,33243
MIAMI,MA08 South Florida,MIAMI-DADE,MIAMI,33245
MIAMI,MA08 South Florida,MIAMI-DADE,MIAMI,33247
MIAMI,MA08 South Florida,MIAMI-DADE,MIAMI,33255
MIAMI,MA08 South Florida,MIAMI-DADE,MIAMI,33256
MIAMI,MA08 South Florida,MIAMI-DADE,MIAMI,33257
MIAMI,MA08 South Florida,MIAMI-DADE,MIAMI,33261
MIAMI,MA08 South Florida,MIAMI-DADE,MIAMI,33265
MIAMI,MA08 South Florida,MIAMI-DADE,MIAMI,33266
MIAMI,MA08 South Florida,MIAMI-DADE,MIAMI,33269
MIAMI,MA08 South Florida,MIAMI-DADE,MIAMI,33280
MIAMI,MA08 South Florida,MIAMI-DADE,MIAMI,33283
MIAMI,MA08 South Florida,MIAMI-DADE,MIAMI,33296
MIAMI,MA08 South Florida,MIAMI-DADE,MIAMI,33299
MIAMI BEACH,MA08 South Florida,MIAMI-DADE,MIAMI BEACH,33109
MIAMI BEACH,MA08 South Florida,MIAMI-DADE,MIAMI BEACH,33119
MIAMI BEACH,MA08 South Florida,MIAMI-DADE,MIAMI BEACH,33139
MIAMI BEACH,MA08 South Florida,MIAMI-DADE,MIAMI BEACH,33140
MIAMI BEACH,MA08 South Florida,MIAMI-DADE,MIAMI BEACH,33141
MIAMI BEACH,MA08 South Florida,MIAMI-DADE,MIAMI BEACH,33154
MIAMI BEACH,MA08 South Florida,MIAMI-DADE,MIAMI BEACH,33239
MIAMI GARDENS,MA08 South Florida,MIAMI-DADE,MIAMI GARDENS,33056
NORTH MIAMI BEACH,MA08 South Florida,MIAMI-DADE,NORTH MIAMI BEACH,33160
OPA LOCKA,MA08 South Florida,MIAMI-DADE,OPA LOCKA,33054
OPA LOCKA,MA08 South Florida,MIAMI-DADE,OPA LOCKA,33055
BIG PINE KEY,MA08 South Florida,MONROE,BIG PINE KEY,33043
ISLAMORADA,MA08 South Florida,MONROE,ISLAMORADA,33036
KEY COLONY BEACH,MA08 South Florida,MONROE,KEY COLONY BEACH,33051
KEY LARGO,MA08 South Florida,MONROE,KEY LARGO,33037
KEY WEST,MA08 South Florida,MONROE,KEY WEST,33040
KEY WEST,MA08 South Florida,MONROE,KEY WEST,33041
KEY WEST,MA08 South Florida,MONROE,KEY WEST,33045
LONG KEY,MA08 South Florida,MONROE,LONG KEY,33001
MARATHON,MA08 South Florida,MONROE,MARATHON,33050
MARATHON SHORES,MA08 South Florida,MONROE,MARATHON SHORES,33052
SUMMERLAND KEY,MA08 South Florida,MONROE,SUMMERLAND KEY,33042
TAVERNIER,MA08 South Florida,MONROE,TAVERNIER,33070
BELLE GLADE,MA08 South Florida,PALM BEACH,BELLE GLADE,33430
BOCA RATON,MA08 South Florida,PALM BEACH,BOCA RATON,33427
BOCA RATON,MA08 South Florida,PALM BEACH,BOCA RATON,33428
BOCA RATON,MA08 South Florida,PALM BEACH,BOCA RATON,33429
BOCA RATON,MA08 South Florida,PALM BEACH,BOCA RATON,33431
BOCA RATON,MA08 South Florida,PALM BEACH,BOCA RATON,33432
BOCA RATON,MA08 South Florida,PALM BEACH,BOCA RATON,33433
BOCA RATON,MA08 South Florida,PALM BEACH,BOCA RATON,33434
BOCA RATON,MA08 South Florida,PALM BEACH,BOCA RATON,33464
BOCA RATON,MA08 South Florida,PALM BEACH,BOCA RATON,33481
BOCA RATON,MA08 South Florida,PALM BEACH,BOCA RATON,33486
BOCA RATON,MA08 South Florida,PALM BEACH,BOCA RATON,33487
BOCA RATON,MA08 South Florida,PALM BEACH,BOCA RATON,33488
BOCA RATON,MA08 South Florida,PALM BEACH,BOCA RATON,33496
BOCA RATON,MA08 South Florida,PALM BEACH,BOCA RATON,33497
BOCA RATON,MA08 South Florida,PALM BEACH,BOCA RATON,33498
BOCA RATON,MA08 South Florida,PALM BEACH,BOCA RATON,33499
BOYNTON BEACH,MA08 South Florida,PALM BEACH,BOYNTON BEACH,33424
BOYNTON BEACH,MA08 South Florida,PALM BEACH,BOYNTON BEACH,33425
BOYNTON BEACH,MA08 South Florida,PALM BEACH,BOYNTON BEACH,33426
BOYNTON BEACH,MA08 South Florida,PALM BEACH,BOYNTON BEACH,33435
BOYNTON BEACH,MA08 South Florida,PALM BEACH,BOYNTON BEACH,33436
BOYNTON BEACH,MA08 South Florida,PALM BEACH,BOYNTON BEACH,33437
BOYNTON BEACH,MA08 South Florida,PALM BEACH,BOYNTON BEACH,33472
BOYNTON BEACH,MA08 South Florida,PALM BEACH,BOYNTON BEACH,33473
BOYNTON BEACH,MA08 South Florida,PALM BEACH,BOYNTON BEACH,33474
CANAL POINT,MA08 South Florida,PALM BEACH,CANAL POINT,33438
DELRAY BEACH,MA08 South Florida,PALM BEACH,DELRAY BEACH,33444
DELRAY BEACH,MA08 South Florida,PALM BEACH,DELRAY BEACH,33445
DELRAY BEACH,MA08 South Florida,PALM BEACH,DELRAY BEACH,33446
DELRAY BEACH,MA08 South Florida,PALM BEACH,DELRAY BEACH,33448
DELRAY BEACH,MA08 South Florida,PALM BEACH,DELRAY BEACH,33482
DELRAY BEACH,MA08 South Florida,PALM BEACH,DELRAY BEACH,33483
DELRAY BEACH,MA08 South Florida,PALM BEACH,DELRAY BEACH,33484
GREENACRES,MA08 South Florida,PALM BEACH,GREENACRES,33454
JUPITER,MA08 South Florida,PALM BEACH,JUPITER,33458
JUPITER,MA08 South Florida,PALM BEACH,JUPITER,33468
JUPITER,MA08 South Florida,PALM BEACH,JUPITER,33469
JUPITER,MA08 South Florida,PALM BEACH,JUPITER,33477
JUPITER,MA08 South Florida,PALM BEACH,JUPITER,33478
LAKE HARBOR,MA08 South Florida,PALM BEACH,LAKE HARBOR,33459
LAKE WORTH,MA08 South Florida,PALM BEACH,LAKE WORTH,33449
LAKE WORTH,MA08 South Florida,PALM BEACH,LAKE WORTH,33460
LAKE WORTH,MA08 South Florida,PALM BEACH,LAKE WORTH,33461
LAKE WORTH,MA08 South Florida,PALM BEACH,LAKE WORTH,33462
LAKE WORTH,MA08 South Florida,PALM BEACH,LAKE WORTH,33463
LAKE WORTH,MA08 South Florida,PALM BEACH,LAKE WORTH,33465
LAKE WORTH,MA08 South Florida,PALM BEACH,LAKE WORTH,33466
LAKE WORTH,MA08 South Florida,PALM BEACH,LAKE WORTH,33467
LOXAHATCHEE,MA08 South Florida,PALM BEACH,LOXAHATCHEE,33470
NORTH PALM BEACH,MA08 South Florida,PALM BEACH,NORTH PALM BEACH,33408
PAHOKEE,MA08 South Florida,PALM BEACH,PAHOKEE,33476
PALM BEACH,MA08 South Florida,PALM BEACH,PALM BEACH,33480
PALM BEACH GARDENS,MA08 South Florida,PALM BEACH,PALM BEACH GARDENS,33410
PALM BEACH GARDENS,MA08 South Florida,PALM BEACH,PALM BEACH GARDENS,33418
ROYAL PALM BEACH,MA08 South Florida,PALM BEACH,ROYAL PALM BEACH,33411
ROYAL PALM BEACH,MA08 South Florida,PALM BEACH,ROYAL PALM BEACH,33421
SOUTH BAY,MA08 South Florida,PALM BEACH,SOUTH BAY,33493
WELLINGTON,MA08 South Florida,PALM BEACH,WELLINGTON,33414
WEST PALM BEACH,MA08 South Florida,PALM BEACH,WEST PALM BEACH,33401
WEST PALM BEACH,MA08 South Florida,PALM BEACH,WEST PALM BEACH,33402
WEST PALM BEACH,MA08 South Florida,PALM BEACH,WEST PALM BEACH,33403
WEST PALM BEACH,MA08 South Florida,PALM BEACH,WEST PALM BEACH,33404
WEST PALM BEACH,MA08 South Florida,PALM BEACH,WEST PALM BEACH,33405
WEST PALM BEACH,MA08 South Florida,PALM BEACH,WEST PALM BEACH,33406
WEST PALM BEACH,MA08 South Florida,PALM BEACH,WEST PALM BEACH,33407
WEST PALM BEACH,MA08 South Florida,PALM BEACH,WEST PALM BEACH,33409
WEST PALM BEACH,MA08 South Florida,PALM BEACH,WEST PALM BEACH,33412
WEST PALM BEACH,MA08 South Florida,PALM BEACH,WEST PALM BEACH,33413
WEST PALM BEACH,MA08 South Florida,PALM BEACH,WEST PALM BEACH,33415
WEST PALM BEACH,MA08 South Florida,PALM BEACH,WEST PALM BEACH,33416
WEST PALM BEACH,MA08 South Florida,PALM BEACH,WEST PALM BEACH,33417
WEST PALM BEACH,MA08 South Florida,PALM BEACH,WEST PALM BEACH,33419
WEST PALM BEACH,MA08 South Florida,PALM BEACH,WEST PALM BEACH,33420
WEST PALM BEACH,MA08 South Florida,PALM BEACH,WEST PALM BEACH,33422
ENGLEWOOD,MA08 South Florida,SARASOTA,ENGLEWOOD,34223
ENGLEWOOD,MA08 South Florida,SARASOTA,ENGLEWOOD,34295
LAUREL,MA08 South Florida,SARASOTA,LAUREL,34272
NOKOMIS,MA08 South Florida,SARASOTA,NOKOMIS,34274
NOKOMIS,MA08 South Florida,SARASOTA,NOKOMIS,34275
NORTH PORT,MA08 South Florida,SARASOTA,NORTH PORT,34286
NORTH PORT,MA08 South Florida,SARASOTA,NORTH PORT,34287
NORTH PORT,MA08 South Florida,SARASOTA,NORTH PORT,34288
NORTH PORT,MA08 South Florida,SARASOTA,NORTH PORT,34289
NORTH PORT,MA08 South Florida,SARASOTA,NORTH PORT,34290
NORTH PORT,MA08 South Florida,SARASOTA,NORTH PORT,34291
OSPREY,MA08 South Florida,SARASOTA,OSPREY,34229
SARASOTA,MA08 South Florida,SARASOTA,SARASOTA,34230
SARASOTA,MA08 South Florida,SARASOTA,SARASOTA,34231
SARASOTA,MA08 South Florida,SARASOTA,SARASOTA,34232
SARASOTA,MA08 South Florida,SARASOTA,SARASOTA,34233
SARASOTA,MA08 South Florida,SARASOTA,SARASOTA,34234
SARASOTA,MA08 South Florida,SARASOTA,SARASOTA,34235
SARASOTA,MA08 South Florida,SARASOTA,SARASOTA,34236
SARASOTA,MA08 South Florida,SARASOTA,SARASOTA,34237
SARASOTA,MA08 South Florida,SARASOTA,SARASOTA,34238
SARASOTA,MA08 South Florida,SARASOTA,SARASOTA,34239
SARASOTA,MA08 South Florida,SARASOTA,SARASOTA,34240
SARASOTA,MA08 South Florida,SARASOTA,SARASOTA,34241
SARASOTA,MA08 South Florida,SARASOTA,SARASOTA,34242
SARASOTA,MA08 South Florida,SARASOTA,SARASOTA,34249
SARASOTA,MA08 South Florida,SARASOTA,SARASOTA,34276
SARASOTA,MA08 South Florida,SARASOTA,SARASOTA,34277
SARASOTA,MA08 South Florida,SARASOTA,SARASOTA,34278
VENICE,MA08 South Florida,SARASOTA,VENICE,34284
VENICE,MA08 South Florida,SARASOTA,VENICE,34285
VENICE,MA08 South Florida,SARASOTA,VENICE,34292
VENICE,MA08 South Florida,SARASOTA,VENICE,34293
